{"type":"FeatureCollection","bbox":[55,25,57.5,27.5],"features":[{"type":"Feature","id":"etopo1-depth-10","properties":{"depthMetres":10,"source":"NOAA ETOPO1","kind":"regional-depth-contour","verticalDatum":"mean sea level"},"geometry":{"type":"MultiLineString","coordinates":[[[55.0,25.1],[55.0166667,25.1083333],[55.0333333,25.1083333],[55.05,25.1083333],[55.0666667,25.1166667],[55.0833333,25.1333333],[55.1,25.1416667],[55.1083333,25.15],[55.1166667,25.1666667],[55.1333333,25.1666667],[55.15,25.1833333],[55.1666667,25.1916667],[55.1722222,25.1833333],[55.1714286,25.1666667],[55.1666667,25.1592593],[55.15625,25.15],[55.1666667,25.1380952],[55.1833333,25.1469697],[55.1858974,25.15],[55.1961538,25.1666667],[55.1875,25.1833333],[55.1833333,25.2],[55.2,25.2166667]],[[55.0,26.4833333],[55.0166667,26.475],[55.0333333,26.4666667],[55.05,26.4666667],[55.0666667,26.4611111],[55.0833333,26.4555556],[55.0916667,26.45],[55.1,26.4444444],[55.1166667,26.4444444],[55.1333333,26.4333333],[55.15,26.4277778],[55.1666667,26.4277778],[55.1833333,26.4266667],[55.1958333,26.4166667],[55.1833333,26.4],[55.175,26.3833333],[55.1833333,26.3666667],[55.2,26.3616667],[55.2083333,26.3666667],[55.2111111,26.3833333],[55.2166667,26.4],[55.2333333,26.41],[55.25,26.4111111],[55.2666667,26.4074074],[55.2833333,26.4138889],[55.3,26.41],[55.3166667,26.4166667],[55.3333333,26.4066667],[55.35,26.41],[55.3666667,26.4092593],[55.3833333,26.4166667],[55.4,26.412963],[55.4111111,26.4166667],[55.4166667,26.4190476],[55.4333333,26.4238095],[55.45,26.4316667],[55.4541667,26.4333333],[55.4666667,26.4404762],[55.4833333,26.4466667],[55.49,26.45],[55.5,26.4571429],[55.5166667,26.4666667],[55.5333333,26.475],[55.5425926,26.4833333],[55.55,26.4966667],[55.5518519,26.5],[55.55,26.5166667],[55.5666667,26.525],[55.5833333,26.5333333],[55.5944444,26.55],[55.6,26.5666667],[55.6166667,26.5666667],[55.6333333,26.5777778],[55.65,26.5826667],[55.6533333,26.5833333],[55.6666667,26.59],[55.6738095,26.6],[55.6666667,26.61],[55.6533333,26.6166667],[55.65,26.6208333],[55.6444444,26.6333333],[55.65,26.6388889],[55.6666667,26.6444444],[55.6722222,26.65],[55.68,26.6666667],[55.6833333,26.6694444],[55.7,26.6730769],[55.7166667,26.6712121],[55.7333333,26.6709877],[55.75,26.6722222],[55.7666667,26.6699074],[55.7833333,26.675],[55.8,26.6782051],[55.8166667,26.6823529],[55.8185185,26.6833333],[55.8188889,26.7],[55.8333333,26.712037],[55.85,26.7104167],[55.8666667,26.7116667],[55.8833333,26.7122807],[55.8988889,26.7],[55.8833333,26.6898551],[55.8666667,26.6854167],[55.8611111,26.6833333],[55.8515152,26.6666667],[55.85,26.6633333],[55.8464912,26.65],[55.8383838,26.6333333],[55.8471429,26.6166667],[55.85,26.6095238],[55.8666667,26.6050505],[55.8833333,26.6096491],[55.8966667,26.6166667],[55.9,26.6189655],[55.9085034,26.6333333],[55.9163121,26.65],[55.9166667,26.6520833],[55.9263889,26.6666667],[55.9333333,26.6730769],[55.9466667,26.6833333],[55.95,26.6845679],[55.9666667,26.6947368],[55.9719298,26.7],[55.9833333,26.7135417],[55.9883333,26.7166667],[56.0,26.7239583],[56.0136364,26.7333333],[56.0166667,26.7355556],[56.0333333,26.7458333],[56.0402778,26.75],[56.05,26.7546667],[56.0636364,26.7666667],[56.0666667,26.7693333],[56.0833333,26.7810345],[56.0872549,26.7833333],[56.1,26.7947368],[56.1076923,26.8],[56.1166667,26.8145833],[56.1174603,26.8166667],[56.1333333,26.8290123],[56.1378205,26.8333333],[56.15,26.8491667],[56.1506667,26.85],[56.1615385,26.8666667],[56.1666667,26.8833333],[56.1764706,26.9],[56.1833333,26.9041667],[56.2,26.9108333],[56.2166667,26.9154762],[56.2333333,26.9142857],[56.2444444,26.9166667],[56.25,26.9170635],[56.2666667,26.919697],[56.2833333,26.9283333],[56.2916667,26.9333333],[56.3,26.9458333],[56.3008772,26.95],[56.3013158,26.9666667],[56.3,26.9689394],[56.2841667,26.9833333],[56.2833333,26.9845238],[56.2777778,26.9833333],[56.2666667,26.9820513],[56.26,26.9833333],[56.25,26.9895833],[56.2395833,27.0],[56.2333333,27.0125],[56.2277778,27.0166667],[56.2166667,27.0203704],[56.2,27.0229167],[56.1833333,27.0222222],[56.1708333,27.0166667],[56.1666667,27.0148148],[56.15,27.0136364],[56.1333333,27.0111111],[56.1166667,27.0111111],[56.1,27.0083333],[56.0833333,27.0],[56.0714286,26.9833333],[56.0666667,26.9809524],[56.05,26.9833333],[56.0333333,26.9791667],[56.0166667,26.9761905],[56.0,26.9694444],[55.9984848,26.9666667],[55.9833333,26.9578947],[55.9784946,26.95],[55.9666667,26.9403509],[55.95,26.9411111],[55.9333333,26.94375],[55.9166667,26.9416667],[55.9083333,26.95],[55.9166667,26.9633333],[55.925,26.9666667],[55.9333333,26.9722222],[55.9444444,26.9833333],[55.95,26.9854167],[55.9645833,27.0],[55.9642857,27.0166667],[55.9666667,27.01875],[55.975,27.0166667],[55.9708333,27.0],[55.9833333,26.9916667],[56.0,26.9972222],[56.0033333,27.0],[56.0166667,27.0111111],[56.0333333,27.0138889],[56.0375,27.0166667],[56.05,27.0333333],[56.0666667,27.0444444],[56.0833333,27.0416667],[56.0944444,27.05],[56.1,27.0666667],[56.1166667,27.075],[56.1333333,27.0777778],[56.1388889,27.0833333],[56.15,27.09],[56.1666667,27.0916667],[56.1833333,27.0958333],[56.2,27.1]],[[55.0018519,25.0],[55.0166667,25.0140351],[55.0333333,25.0]],[[55.2,25.2166667],[55.2,25.2333333],[55.2166667,25.25],[55.2333333,25.2527778],[55.2472222,25.2666667],[55.25,25.2694444],[55.2564103,25.2833333],[55.2666667,25.2928571],[55.2833333,25.2904762],[55.2981481,25.3],[55.29,25.3166667],[55.3,25.3291667],[55.3033333,25.3333333],[55.3083333,25.35],[55.3166667,25.3583333],[55.3182292,25.35],[55.32,25.3333333],[55.3166667,25.325],[55.3071429,25.3166667],[55.3166667,25.3083333],[55.3333333,25.3076389],[55.342,25.3166667],[55.35,25.3284314],[55.3555556,25.3333333],[55.3583333,25.35],[55.3576923,25.3666667],[55.3666667,25.3695833],[55.3833333,25.375],[55.3922222,25.3833333],[55.3833333,25.3935897],[55.3714286,25.4],[55.3666667,25.4166667],[55.3833333,25.4333333],[55.4,25.4166667],[55.4166667,25.4111111],[55.4216667,25.4166667],[55.4333333,25.4333333],[55.45,25.4444444],[55.455,25.45],[55.4625,25.4666667],[55.4633333,25.4833333],[55.4666667,25.4888889],[55.4714286,25.5],[55.4833333,25.5104167],[55.5,25.5015873],[55.5131944,25.5166667],[55.5166667,25.521875],[55.525,25.5333333],[55.5333333,25.55],[55.5447368,25.5666667],[55.55,25.5731183],[55.5598958,25.5833333],[55.5666667,25.5888889],[55.5816092,25.6],[55.5666667,25.6131313],[55.5537037,25.6166667],[55.5666667,25.63125],[55.5722222,25.6333333],[55.5833333,25.64],[55.5916667,25.6333333],[55.6,25.6291667],[55.6166667,25.6257576],[55.6305556,25.6333333],[55.6166667,25.6425926],[55.6,25.65],[55.6166667,25.6633333],[55.625,25.6666667],[55.6333333,25.6708333],[55.65,25.6791667],[55.6583333,25.6833333],[55.6666667,25.6888889],[55.6833333,25.7],[55.7,25.7125],[55.7083333,25.7166667],[55.7166667,25.7208333],[55.7333333,25.7333333],[55.75,25.75],[55.7666667,25.7625],[55.7722222,25.7666667],[55.7833333,25.7733333],[55.7958333,25.7833333],[55.8,25.7861111],[55.8166667,25.7916667],[55.825,25.8],[55.8333333,25.8055556],[55.85,25.8166667],[55.8666667,25.825],[55.8833333,25.83],[55.9,25.8333333],[55.9166667,25.8466667],[55.925,25.85],[55.9333333,25.8555556],[55.9444444,25.8666667],[55.95,25.8722222],[55.9566667,25.8833333],[55.9666667,25.8933333],[55.9694444,25.8833333],[55.9833333,25.8666667],[56.0,25.88125],[56.0018519,25.8833333],[56.0066667,25.9],[56.0106061,25.9166667],[56.0133333,25.9333333],[56.0166667,25.9361111],[56.025,25.95],[56.0333333,25.9592593],[56.0384615,25.9666667],[56.05,25.9816667],[56.0507937,25.9833333],[56.0604167,26.0],[56.0646667,26.0166667],[56.0666667,26.0212121],[56.0736842,26.0333333],[56.0786325,26.05],[56.0833333,26.0601852],[56.0838685,26.0666667],[56.0833333,26.0744444],[56.0666667,26.0828704],[56.0657407,26.0833333],[56.0666667,26.0839286],[56.0833333,26.0896825],[56.1,26.0973958],[56.1004817,26.1],[56.1166667,26.116568],[56.1167989,26.1166667],[56.1235294,26.1333333],[56.1316667,26.15],[56.1333333,26.1506944],[56.1475309,26.1666667],[56.147807,26.1833333],[56.15,26.1852713],[56.1666667,26.1973684],[56.1672655,26.2],[56.1682891,26.2166667],[56.1706349,26.2333333],[56.1833333,26.2407407],[56.1909091,26.25],[56.1977273,26.2666667],[56.2,26.269697],[56.2030303,26.2666667],[56.2166667,26.2608974],[56.2291667,26.25],[56.2293155,26.2333333],[56.2333333,26.220098],[56.25,26.2191358],[56.2666667,26.2223577],[56.2833333,26.2246212],[56.2975309,26.2333333],[56.3,26.2393939],[56.3012411,26.25],[56.3008642,26.2666667],[56.3023148,26.2833333],[56.3166667,26.2985294],[56.3169956,26.3],[56.3231707,26.3166667],[56.3333333,26.3301075],[56.3349727,26.3333333],[56.335049,26.35],[56.3385965,26.3666667],[56.35,26.3802083],[56.3666667,26.3816092],[56.3722222,26.3833333],[56.3833333,26.386036],[56.3862745,26.3833333],[56.4,26.3713675],[56.416092,26.3833333],[56.4166667,26.385],[56.42,26.3833333],[56.4333333,26.3782051],[56.45,26.3782946],[56.4666667,26.3703704],[56.4722222,26.3666667],[56.4833333,26.3632479],[56.5,26.3575],[56.5089431,26.3666667],[56.5134921,26.3833333],[56.5166667,26.387037],[56.5261905,26.3833333],[56.5333333,26.3824859],[56.5443137,26.3666667],[56.5358824,26.35],[56.5333333,26.3409722],[56.5309829,26.3333333],[56.5280392,26.3166667],[56.5166667,26.3008197],[56.5,26.301004],[56.4924242,26.3],[56.4833333,26.2956522],[56.4666667,26.2923977],[56.4505208,26.2833333],[56.45,26.2829457],[56.4333333,26.2791667],[56.4183333,26.2666667],[56.4227778,26.25],[56.4333333,26.2437908],[56.45,26.2384058],[56.4666667,26.2497117],[56.4788889,26.25],[56.4833333,26.2515873],[56.4854167,26.25],[56.4858974,26.2333333],[56.4878788,26.2166667],[56.5,26.2041667],[56.5039216,26.2],[56.5,26.1948718],[56.4842105,26.1833333],[56.4833333,26.1826389],[56.4696429,26.1666667],[56.4820396,26.15],[56.4833333,26.1416667],[56.4896296,26.1333333],[56.4833333,26.1232143],[56.4793478,26.1166667],[56.4807692,26.1],[56.4764228,26.0833333],[56.4666667,26.0735772],[56.4553333,26.0666667],[56.45,26.0603175],[56.4491436,26.05],[56.4333333,26.0334025],[56.4314815,26.0333333],[56.4323944,26.0166667],[56.4333333,26.0033333],[56.4337607,26.0],[56.4334192,25.9833333],[56.4344444,25.9666667],[56.445,25.95],[56.45,25.9479167],[56.4666667,25.9333333],[56.45,25.9181159],[56.4462963,25.9166667],[56.4333333,25.9088889],[56.4230769,25.9],[56.4166667,25.8935897],[56.4158281,25.8833333],[56.412766,25.8666667],[56.4006667,25.85],[56.4,25.8444444],[56.3979167,25.8333333],[56.3833333,25.8210526],[56.382397,25.8166667],[56.3686667,25.8],[56.3666667,25.7985714],[56.3582011,25.7833333],[56.3511111,25.7666667],[56.35,25.762963],[56.3462366,25.75],[56.3333333,25.7409091],[56.3166667,25.7358696],[56.3113636,25.7333333],[56.3,25.7278986],[56.2876984,25.7166667],[56.2865248,25.7],[56.2866667,25.6833333],[56.2833333,25.6763889],[56.2780303,25.6666667],[56.2725806,25.65],[56.2738095,25.6333333],[56.2833333,25.6208333],[56.2966667,25.6166667],[56.3,25.6161111],[56.3166667,25.6096491],[56.3333333,25.6087838],[56.3484496,25.6],[56.35,25.5866667],[56.3515152,25.5833333],[56.3641026,25.5666667],[56.362,25.55],[56.3666667,25.5410256],[56.37,25.5333333],[56.3757576,25.5166667],[56.3709877,25.5],[56.3703704,25.4833333],[56.3701149,25.4666667],[56.3769231,25.45],[56.3733333,25.4333333],[56.3724638,25.4166667],[56.3717949,25.4],[56.3675,25.3833333],[56.3666667,25.3822917],[56.3588542,25.3666667],[56.3666667,25.3597222],[56.3739583,25.35],[56.3833333,25.3354839],[56.3845029,25.3333333],[56.3833333,25.3259259],[56.3826923,25.3166667],[56.3745098,25.3],[56.375,25.2833333],[56.375,25.2666667],[56.372619,25.25],[56.3711538,25.2333333],[56.3710526,25.2166667],[56.3738095,25.2],[56.371875,25.1833333],[56.3703704,25.1666667],[56.3705882,25.15],[56.3722222,25.1333333],[56.3742424,25.1166667],[56.3796296,25.1],[56.3833333,25.0833333],[56.3858974,25.0666667],[56.3861111,25.05],[56.3875,25.0333333],[56.3833333,25.03],[56.3746377,25.0166667],[56.3833333,25.0033333],[56.3883333,25.0]],[[55.2,25.2166667],[55.2166667,25.2041667],[55.2333333,25.2166667],[55.2166667,25.2333333],[55.2,25.2166667]],[[56.2,27.1],[56.1833333,27.1083333],[56.175,27.1166667],[56.1833333,27.1185185],[56.2,27.1203704],[56.2166667,27.1203704],[56.2333333,27.12],[56.25,27.1166667],[56.2333333,27.1]],[[56.2,27.1],[56.2166667,27.1],[56.2333333,27.1]],[[56.2333333,27.1],[56.25,27.1],[56.2666667,27.1166667],[56.2833333,27.1083333],[56.3,27.1083333],[56.3166667,27.1],[56.3333333,27.1],[56.35,27.1],[56.3666667,27.0916667],[56.375,27.0833333],[56.3833333,27.0791667],[56.3904762,27.0666667],[56.3933333,27.05],[56.3985507,27.0333333],[56.4,27.0316667],[56.4166667,27.0269231],[56.4333333,27.0212121],[56.45,27.0189394],[56.4666667,27.0172764],[56.4833333,27.0205882],[56.5,27.0261905],[56.5071429,27.0333333],[56.5152778,27.05],[56.5166667,27.0666667],[56.5145833,27.0833333],[56.5166667,27.1],[56.5333333,27.0833333],[56.55,27.0888889],[56.5666667,27.0833333],[56.5833333,27.0875],[56.6,27.0875],[56.6166667,27.0916667],[56.6333333,27.0875],[56.65,27.0880952],[56.6611111,27.0833333],[56.6666667,27.0809524],[56.6833333,27.08],[56.7,27.0733333],[56.7083333,27.0666667],[56.7166667,27.0619048],[56.7333333,27.05],[56.75,27.0366667],[56.7533333,27.0333333],[56.7666667,27.0222222],[56.775,27.0166667],[56.7833333,27.01],[56.7933333,27.0],[56.8,26.9933333],[56.8166667,26.9888889],[56.8194444,26.9833333],[56.8305556,26.9666667],[56.8333333,26.9625],[56.8458333,26.95],[56.85,26.9458333],[56.8583333,26.9333333],[56.8666667,26.9166667],[56.8809524,26.9],[56.8833333,26.8972222],[56.8916667,26.9],[56.9,26.9083333],[56.9083333,26.9166667],[56.9,26.9333333],[56.9166667,26.9410256],[56.9222222,26.9333333],[56.9185185,26.9166667],[56.9166667,26.9],[56.9,26.8916667],[56.8972222,26.8833333],[56.9,26.875],[56.9041667,26.8666667],[56.9166667,26.8566667],[56.9233333,26.85],[56.93125,26.8333333],[56.9333333,26.8291667],[56.9416667,26.8333333],[56.9404762,26.85],[56.95,26.8595238],[56.9666667,26.8630952],[56.9833333,26.8574074],[56.9893939,26.85],[57.0,26.8377193],[57.0039683,26.8333333],[57.0122549,26.8166667],[57.0138889,26.8],[57.0166667,26.7875],[57.0176471,26.7833333],[57.0191667,26.7666667],[57.0240741,26.75],[57.0333333,26.7333333],[57.0383333,26.7166667],[57.0474359,26.7],[57.0444444,26.6833333],[57.0366667,26.6666667],[57.0333333,26.6648148],[57.0166667,26.6666667]],[[56.9833333,26.8],[56.9666667,26.7944444],[56.9555556,26.8],[56.9511905,26.8166667],[56.95,26.8277778],[56.9433333,26.8166667],[56.947619,26.8],[56.95,26.7944444],[56.9555556,26.7833333],[56.9619048,26.7666667],[56.9666667,26.7583333],[56.975,26.75],[56.9833333,26.7416667],[56.9875,26.75],[56.9884615,26.7666667],[56.9875,26.7833333],[56.9833333,26.8]],[[56.9833333,26.8],[56.9816092,26.8166667],[56.9833333,26.8179487],[56.985119,26.8166667],[56.9833333,26.8]],[[57.0166667,26.7],[57.0,26.7066667],[56.9954545,26.7166667],[56.99,26.7333333],[57.0,26.7388889],[57.005,26.7333333],[57.0166667,26.71875],[57.0208333,26.7166667],[57.0166667,26.7]],[[57.0166667,26.7],[57.0142857,26.6833333],[57.0166667,26.6666667]],[[57.0166667,26.7],[57.02,26.6833333],[57.0166667,26.6666667]],[[57.0166667,26.6666667],[57.0222222,26.65],[57.0291667,26.6333333],[57.0333333,26.6166667],[57.05,26.625],[57.0583333,26.6166667],[57.0666667,26.6066667],[57.06875,26.6],[57.0666667,26.5888889],[57.0633333,26.5833333],[57.0595238,26.5666667],[57.05,26.5555556],[57.0416667,26.55],[57.05,26.5490741],[57.0666667,26.5464286],[57.0758333,26.5333333],[57.0785088,26.5166667],[57.072549,26.5],[57.0666667,26.4875],[57.0645833,26.4833333],[57.05,26.4696078],[57.0416667,26.4666667],[57.0333333,26.4611111],[57.0233333,26.45],[57.0242424,26.4333333],[57.0236111,26.4166667],[57.0277778,26.4],[57.0288889,26.3833333],[57.03,26.3666667],[57.0333333,26.3541667],[57.0357143,26.35],[57.0430556,26.3333333],[57.0488095,26.3166667],[57.05,26.3125],[57.055,26.3],[57.0611111,26.2833333],[57.0666667,26.2729167],[57.0722222,26.2666667],[57.0818182,26.25],[57.0833333,26.2472222],[57.0925926,26.2333333],[57.1,26.22],[57.1027778,26.2166667],[57.112963,26.2],[57.1166667,26.1952381],[57.1285714,26.1833333],[57.1333333,26.1722222],[57.1388889,26.1666667],[57.1416667,26.15],[57.15,26.1333333],[57.15,26.1166667],[57.15,26.1],[57.15,26.0833333],[57.1444444,26.0666667],[57.1458333,26.05],[57.1433333,26.0333333],[57.1430556,26.0166667],[57.1458333,26.0],[57.15,25.996875],[57.1666667,25.9916667],[57.1833333,25.9875],[57.1916667,25.9833333],[57.2,25.9777778],[57.2166667,25.9722222],[57.2277778,25.9666667],[57.2309524,25.95],[57.2333333,25.9416667],[57.2354167,25.9333333],[57.2444444,25.9166667],[57.2479167,25.9],[57.25,25.8972222],[57.2592593,25.8833333],[57.2611111,25.8666667],[57.2654762,25.85],[57.2666667,25.8444444],[57.2703704,25.8333333],[57.2805556,25.8166667],[57.2833333,25.8119048],[57.2902778,25.8],[57.3,25.7854167],[57.3089744,25.8],[57.3166667,25.80625],[57.322549,25.8],[57.3304487,25.7833333],[57.3333333,25.7683333],[57.3361111,25.7666667],[57.35,25.7611111],[57.3666667,25.7537037],[57.3833333,25.7516667],[57.3875,25.75],[57.4,25.74375],[57.4166667,25.7388889],[57.425,25.7333333],[57.4333333,25.7291667],[57.45,25.725],[57.4666667,25.7190476],[57.4833333,25.7190476],[57.4888889,25.7166667],[57.5,25.7111111]],[[55.0058333,25.8666667],[55.0094203,25.8833333],[55.0072917,25.9],[55.0111111,25.9166667],[55.0166667,25.92],[55.0333333,25.9166667],[55.0448718,25.9],[55.05,25.8960784],[55.0561905,25.8833333],[55.0555556,25.8666667],[55.05,25.85],[55.0333333,25.845614],[55.0214286,25.85],[55.0166667,25.8522222],[55.0058333,25.8666667]],[[55.03,26.6166667],[55.0333333,26.6],[55.05,26.5958333],[55.0666667,26.6],[55.0833333,26.6166667],[55.09,26.6333333],[55.0888889,26.65],[55.0833333,26.652381],[55.0821429,26.65],[55.075,26.6333333],[55.0666667,26.625],[55.05,26.6266667],[55.0333333,26.6190476],[55.03,26.6166667]],[[55.0689394,25.05],[55.0759259,25.0666667],[55.0833333,25.0740741],[55.0916667,25.0666667],[55.0946429,25.05],[55.0833333,25.0373333],[55.0689394,25.05]],[[55.0904762,26.2333333],[55.1,26.2306667],[55.1166667,26.2307292],[55.1333333,26.2279762],[55.15,26.229386],[55.1557692,26.2333333],[55.15,26.2433333],[55.1441176,26.25],[55.1333333,26.2587302],[55.1308219,26.25],[55.1166667,26.2345771],[55.1,26.2366667],[55.0904762,26.2333333]],[[55.0955556,26.2666667],[55.1,26.2633333],[55.1166667,26.2647619],[55.1240741,26.2666667],[55.1166667,26.2761905],[55.1,26.2695652],[55.0955556,26.2666667]],[[55.1041667,25.1],[55.1111111,25.0833333],[55.1166667,25.0820513],[55.1333333,25.0833333],[55.1366667,25.1],[55.1466667,25.1166667],[55.1333333,25.1277778],[55.1222222,25.1166667],[55.1166667,25.1136364],[55.1041667,25.1]],[[55.1257576,26.2833333],[55.1333333,26.2777778],[55.1349673,26.2833333],[55.1333333,26.2855263],[55.1257576,26.2833333]],[[55.1495098,26.7166667],[55.15,26.7125],[55.1538462,26.7166667],[55.15,26.7169978],[55.1495098,26.7166667]],[[55.1966667,26.6333333],[55.2,26.63],[55.2051282,26.6166667],[55.2166667,26.6],[55.2175,26.5833333],[55.2166667,26.58],[55.2083333,26.5666667],[55.2166667,26.5571429],[55.2222222,26.55],[55.2333333,26.5423077],[55.2401961,26.5333333],[55.25,26.5166667],[55.2666667,26.5015152],[55.2833333,26.5166667],[55.2833333,26.5333333],[55.2714286,26.55],[55.2666667,26.5576923],[55.2583333,26.5666667],[55.2583333,26.5833333],[55.2615385,26.6],[55.255,26.6166667],[55.25,26.6216667],[55.2333333,26.6283333],[55.227451,26.6333333],[55.2166667,26.6441176],[55.2,26.6388889],[55.1966667,26.6333333]],[[55.2378788,26.65],[55.25,26.6411111],[55.2557971,26.65],[55.25,26.6583333],[55.2378788,26.65]],[[55.248374,26.3],[55.25,26.2978495],[55.2666667,26.2981481],[55.2677083,26.3],[55.2666667,26.3007937],[55.25,26.3026667],[55.248374,26.3]],[[55.2545455,26.6833333],[55.2666667,26.6722222],[55.2833333,26.6681818],[55.3,26.6833333],[55.3166667,26.6888889],[55.3333333,26.6833333],[55.35,26.675],[55.3666667,26.6785714],[55.3833333,26.6796296],[55.4,26.6811111],[55.4047619,26.6833333],[55.4166667,26.6925926],[55.425,26.7],[55.4240741,26.7166667],[55.4166667,26.7261905],[55.4083333,26.7333333],[55.4,26.7378788],[55.3833333,26.7466667],[55.3666667,26.747619],[55.3625,26.75],[55.35,26.7576923],[55.3388889,26.75],[55.3333333,26.74],[55.3166667,26.7416667],[55.3,26.74],[55.2933333,26.7333333],[55.2833333,26.7166667],[55.2666667,26.7],[55.2545455,26.6833333]],[[55.2787879,26.2833333],[55.2803922,26.2666667],[55.2833333,26.25],[55.3,26.2342593],[55.3166667,26.2346154],[55.3266667,26.25],[55.3277778,26.2666667],[55.3210145,26.2833333],[55.3166667,26.2866667],[55.3,26.2871429],[55.2833333,26.2861111],[55.2787879,26.2833333]],[[55.4066667,25.45],[55.4166667,25.4375],[55.4208333,25.45],[55.4166667,25.4583333],[55.4066667,25.45]],[[55.4266667,25.4666667],[55.4333333,25.4636364],[55.4375,25.4666667],[55.4333333,25.4733333],[55.4266667,25.4666667]],[[55.475,26.55],[55.4833333,26.5333333],[55.5,26.55],[55.4833333,26.5541667],[55.475,26.55]],[[55.4770833,26.7333333],[55.4782051,26.75],[55.4833333,26.7539216],[55.5,26.7541667],[55.5166667,26.7611111],[55.5333333,26.7566667],[55.55,26.7648148],[55.5583333,26.7666667],[55.5666667,26.77],[55.5722222,26.7666667],[55.5805556,26.75],[55.5666667,26.7395833],[55.55,26.7351852],[55.5444444,26.7333333],[55.5333333,26.7291667],[55.5166667,26.7208333],[55.5,26.7166667],[55.4833333,26.7208333],[55.4770833,26.7333333]],[[55.4822222,26.7833333],[55.4833333,26.7821429],[55.4845238,26.7833333],[55.4833333,26.7844444],[55.4822222,26.7833333]],[[55.5108333,26.7833333],[55.5166667,26.7736111],[55.5244444,26.7833333],[55.5166667,26.7891667],[55.5108333,26.7833333]],[[55.5166667,26.5833333],[55.5333333,26.5666667],[55.5444444,26.5833333],[55.5333333,26.59],[55.5166667,26.5833333]],[[55.5466667,26.7833333],[55.55,26.7722222],[55.5555556,26.7833333],[55.55,26.7857143],[55.5466667,26.7833333]],[[55.55,26.6],[55.5666667,26.5916667],[55.575,26.6],[55.5666667,26.6033333],[55.55,26.6]],[[55.58,26.7833333],[55.5833333,26.7777778],[55.5857143,26.7833333],[55.5833333,26.7861111],[55.58,26.7833333]],[[55.5821429,26.9166667],[55.5833333,26.9153846],[55.585,26.9166667],[55.5833333,26.9177778],[55.5821429,26.9166667]],[[55.5844444,26.8833333],[55.5871795,26.8666667],[55.6,26.8538462],[55.6098039,26.8666667],[55.6166667,26.8735294],[55.6294872,26.8833333],[55.6333333,26.9],[55.65,26.9],[55.6666667,26.909375],[55.6744444,26.9166667],[55.6833333,26.9227273],[55.6988889,26.9333333],[55.6979167,26.95],[55.69,26.9666667],[55.6833333,26.9722222],[55.6807692,26.9666667],[55.6666667,26.9611111],[55.65,26.9583333],[55.6357143,26.95],[55.6333333,26.9458333],[55.625,26.9333333],[55.6166667,26.9222222],[55.6125,26.9166667],[55.6,26.9],[55.5844444,26.8833333]],[[55.5966667,26.8333333],[55.6,26.8291667],[55.6027778,26.8333333],[55.6,26.8375],[55.5966667,26.8333333]],[[55.6380952,25.65],[55.65,25.6361111],[55.6666667,25.647619],[55.6694444,25.65],[55.6666667,25.6583333],[55.65,25.6604167],[55.6380952,25.65]],[[55.7019608,25.65],[55.7166667,25.6410714],[55.7305556,25.65],[55.7166667,25.6608696],[55.7019608,25.65]],[[55.71,26.9666667],[55.7166667,26.9619048],[55.7208333,26.9666667],[55.7166667,26.9714286],[55.71,26.9666667]],[[55.7219697,26.8833333],[55.7314815,26.8666667],[55.7333333,26.8645833],[55.7366667,26.8666667],[55.75,26.8777778],[55.7530303,26.8833333],[55.75,26.8863636],[55.735,26.9],[55.7333333,26.9018519],[55.7316667,26.9],[55.7219697,26.8833333]],[[55.7698413,26.9666667],[55.775,26.9833333],[55.7833333,26.9911111],[55.7979167,26.9833333],[55.8,26.9809524],[55.8142857,26.9666667],[55.8166667,26.9642857],[55.8257576,26.95],[55.8166667,26.9409091],[55.8,26.95],[55.7833333,26.9548611],[55.7698413,26.9666667]],[[55.8055556,25.7333333],[55.8166667,25.73],[55.8214286,25.7333333],[55.8166667,25.74],[55.8055556,25.7333333]],[[55.8404762,26.9333333],[55.8472222,26.95],[55.85,26.9520833],[55.8666667,26.9569444],[55.8785714,26.95],[55.8833333,26.9474359],[55.9,26.9333333],[55.8916667,26.9166667],[55.8833333,26.91],[55.8666667,26.9111111],[55.8574074,26.9166667],[55.85,26.925],[55.8404762,26.9333333]],[[55.8466667,25.75],[55.85,25.7452381],[55.8666667,25.7383333],[55.8822222,25.75],[55.8666667,25.7606061],[55.85,25.7547619],[55.8466667,25.75]],[[55.9261905,25.8166667],[55.9333333,25.8066667],[55.9404762,25.8166667],[55.9333333,25.8238095],[55.9261905,25.8166667]],[[55.9777778,25.9],[55.9833333,25.8989583],[55.9866667,25.9],[55.9833333,25.9055556],[55.9777778,25.9]],[[55.9944444,27.0333333],[56.0,27.03125],[56.0027778,27.0333333],[56.0,27.0388889],[55.9944444,27.0333333]],[[56.0277778,25.9],[56.0333333,25.8970588],[56.0366667,25.9],[56.0333333,25.9035714],[56.0277778,25.9]],[[56.0777778,27.0833333],[56.0833333,27.0791667],[56.0875,27.0833333],[56.0833333,27.1],[56.0777778,27.0833333]],[[56.2818182,26.25],[56.2833333,26.2480769],[56.2883333,26.25],[56.2833333,26.2521739],[56.2818182,26.25]],[[56.3076271,26.85],[56.3083333,26.8333333],[56.3166667,26.8203125],[56.3283333,26.8166667],[56.3333333,26.8150538],[56.3388889,26.8166667],[56.35,26.8182051],[56.3666667,26.822963],[56.3833333,26.8310345],[56.386,26.8333333],[56.4,26.8420833],[56.4081197,26.85],[56.4166667,26.8651515],[56.4175676,26.8666667],[56.4166667,26.875],[56.4152778,26.8833333],[56.4,26.8947917],[56.3871795,26.9],[56.3843137,26.9166667],[56.3833333,26.9177083],[56.38125,26.9166667],[56.3666667,26.9060606],[56.35,26.9083333],[56.3388889,26.9],[56.3333333,26.8944444],[56.3285714,26.8833333],[56.3166667,26.8666667],[56.3076271,26.85]],[[56.3392857,25.7],[56.3423077,25.6833333],[56.35,25.6801075],[56.3666667,25.6764706],[56.3833333,25.6777778],[56.3854167,25.6833333],[56.387037,25.7],[56.3833333,25.7111111],[56.3666667,25.7166667],[56.35,25.7125],[56.3392857,25.7]],[[56.3446237,25.0833333],[56.35,25.0757576],[56.3592593,25.0833333],[56.35,25.09],[56.3446237,25.0833333]],[[56.3482759,25.0166667],[56.35,25.0135417],[56.3535714,25.0166667],[56.35,25.0202381],[56.3482759,25.0166667]],[[56.3666667,26.15],[56.3833333,26.1404762],[56.3933333,26.15],[56.3833333,26.1525974],[56.3666667,26.15]],[[56.3903509,26.1166667],[56.3940476,26.1333333],[56.4,26.1397436],[56.4166667,26.1352778],[56.4186957,26.1333333],[56.4316667,26.1166667],[56.42,26.1],[56.4166667,26.089881],[56.4138889,26.1],[56.4,26.1147569],[56.3903509,26.1166667]],[[56.39375,27.1166667],[56.4,27.1095238],[56.4166667,27.1133333],[56.4190476,27.1166667],[56.4166667,27.1208333],[56.4,27.1229167],[56.39375,27.1166667]],[[56.4159071,25.9833333],[56.4166667,25.9728395],[56.4328571,25.9833333],[56.4166667,25.9848444],[56.4159071,25.9833333]],[[56.8611111,26.9833333],[56.8666667,26.9791667],[56.8722222,26.9833333],[56.8666667,26.9875],[56.8611111,26.9833333]],[[57.0291667,26.5333333],[57.0333333,26.5297619],[57.0346847,26.5333333],[57.0333333,26.5433333],[57.0291667,26.5333333]],[[57.0444444,26.3833333],[57.05,26.3766667],[57.0530303,26.3833333],[57.05,26.39],[57.0444444,26.3833333]],[[57.0447917,26.5166667],[57.05,26.5097222],[57.0526042,26.5166667],[57.05,26.5188034],[57.0447917,26.5166667]],[[57.1791667,26.2166667],[57.1833333,26.2121212],[57.1866667,26.2166667],[57.1833333,26.22],[57.1791667,26.2166667]],[[57.3433333,25.7833333],[57.35,25.7742424],[57.3558824,25.7833333],[57.35,25.7892157],[57.3433333,25.7833333]]]}},{"type":"Feature","id":"etopo1-depth-20","properties":{"depthMetres":20,"source":"NOAA ETOPO1","kind":"regional-depth-contour","verticalDatum":"mean sea level"},"geometry":{"type":"MultiLineString","coordinates":[[[55.0,25.2666667],[55.0166667,25.2833333],[55.0333333,25.3],[55.0333333,25.3166667],[55.0333333,25.3333333],[55.0166667,25.35],[55.0,25.3333333],[55.0,25.3166667]],[[55.0,25.3666667],[55.0166667,25.3833333],[55.0,25.4]],[[55.0,25.4333333],[55.0166667,25.45],[55.0333333,25.4666667],[55.05,25.4666667],[55.0666667,25.4833333],[55.0833333,25.5],[55.1,25.5],[55.1166667,25.5166667],[55.1333333,25.5166667],[55.15,25.5333333],[55.15,25.55],[55.15,25.5666667],[55.1416667,25.5833333],[55.15,25.6],[55.1666667,25.6],[55.1833333,25.6166667],[55.2,25.6166667],[55.2166667,25.6],[55.2333333,25.6],[55.2333333,25.5833333],[55.2166667,25.5666667],[55.2277778,25.55],[55.225,25.5333333],[55.2166667,25.5166667],[55.2083333,25.5],[55.2,25.4916667],[55.1944444,25.4833333],[55.1833333,25.4666667],[55.1722222,25.45],[55.1666667,25.4416667],[55.1611111,25.4333333],[55.15,25.425],[55.1416667,25.4166667],[55.1333333,25.4055556],[55.1277778,25.4],[55.1166667,25.3833333],[55.1,25.3708333],[55.0944444,25.3666667],[55.0833333,25.3555556],[55.075,25.35],[55.0666667,25.3333333],[55.0666667,25.3166667],[55.0666667,25.3],[55.0833333,25.2833333],[55.1,25.2833333],[55.1166667,25.3],[55.1333333,25.3166667],[55.15,25.3166667],[55.1666667,25.325],[55.1833333,25.3333333],[55.2,25.35],[55.2166667,25.3666667],[55.2166667,25.3833333],[55.2333333,25.3833333],[55.25,25.4],[55.2666667,25.4],[55.2833333,25.4083333],[55.3,25.4166667],[55.3166667,25.4333333],[55.3333333,25.45],[55.35,25.4666667],[55.3583333,25.4833333],[55.3666667,25.5],[55.375,25.5166667],[55.3833333,25.5277778],[55.3916667,25.5333333],[55.4,25.55],[55.4,25.5666667],[55.4166667,25.5833333],[55.4333333,25.6],[55.45,25.6166667],[55.4666667,25.6222222],[55.4833333,25.6333333],[55.5,25.6458333],[55.5083333,25.65],[55.5166667,25.6583333],[55.5333333,25.6666667],[55.55,25.6777778],[55.5583333,25.6833333],[55.5666667,25.6916667],[55.5833333,25.6944444],[55.6,25.6944444],[55.6083333,25.7],[55.6166667,25.7083333],[55.625,25.7166667],[55.6333333,25.725],[55.65,25.7333333],[55.6666667,25.7416667],[55.6833333,25.75],[55.7,25.7583333],[55.7166667,25.7666667],[55.7333333,25.7833333],[55.7444444,25.8],[55.75,25.8055556],[55.7666667,25.8166667],[55.7833333,25.825],[55.8,25.8333333],[55.8166667,25.85],[55.8333333,25.8583333],[55.8416667,25.8666667],[55.85,25.8722222],[55.8666667,25.8833333],[55.8833333,25.8916667],[55.9,25.9],[55.9166667,25.9055556],[55.9333333,25.9111111],[55.9416667,25.9166667],[55.95,25.9222222],[55.9666667,25.9333333],[55.9833333,25.9458333],[55.9875,25.95],[56.0,25.96],[56.0166667,25.9575758],[56.025,25.9666667],[56.0333333,25.9738095],[56.0411765,25.9833333],[56.05,26.0],[56.058,26.0166667],[56.0644444,26.0333333],[56.0666667,26.035],[56.074359,26.05],[56.0815476,26.0666667],[56.0666667,26.0782407],[56.0564815,26.0833333],[56.0666667,26.089881],[56.0833333,26.097619],[56.0895833,26.1],[56.1,26.1032051],[56.1116667,26.1166667],[56.1166667,26.1282051],[56.1186275,26.1333333],[56.1166667,26.1466667],[56.1155556,26.15],[56.1166667,26.1509259],[56.1333333,26.1576389],[56.141358,26.1666667],[56.1434211,26.1833333],[56.15,26.1891473],[56.1645833,26.2],[56.1666667,26.2133333],[56.1668142,26.2166667],[56.1666667,26.2194444],[56.1630435,26.2333333],[56.1666667,26.2362069],[56.1833333,26.2453704],[56.1871212,26.25],[56.1939394,26.2666667],[56.2,26.2747475],[56.2080808,26.2666667],[56.2166667,26.2630342],[56.2316176,26.25],[56.2308036,26.2333333],[56.2333333,26.225],[56.25,26.2253086],[56.2666667,26.2264228],[56.2833333,26.2284091],[56.291358,26.2333333],[56.2833333,26.2416667],[56.2767677,26.25],[56.2833333,26.2594203],[56.2961538,26.2666667],[56.2947917,26.2833333],[56.3,26.2865385],[56.3125,26.3],[56.3166667,26.3089744],[56.3191057,26.3166667],[56.3315789,26.3333333],[56.3325269,26.35],[56.3333333,26.36],[56.3342105,26.3666667],[56.3460784,26.3833333],[56.35,26.3861111],[56.3666667,26.3881944],[56.3833333,26.3905405],[56.3911765,26.3833333],[56.4,26.375641],[56.4103448,26.3833333],[56.4155556,26.4],[56.4166667,26.4015152],[56.4333333,26.4045455],[56.4404762,26.4],[56.4378788,26.3833333],[56.45,26.3802326],[56.4666667,26.3796296],[56.4833333,26.3703704],[56.4857143,26.3666667],[56.5,26.3616667],[56.504878,26.3666667],[56.5055556,26.3833333],[56.5166667,26.3962963],[56.5333333,26.3872222],[56.5359259,26.3833333],[56.5462745,26.3666667],[56.5378431,26.35],[56.5333333,26.3340278],[56.5331197,26.3333333],[56.53,26.3166667],[56.5193182,26.3],[56.5166667,26.2963542],[56.5,26.2960317],[56.4833333,26.2884058],[56.4666667,26.2894737],[56.4557292,26.2833333],[56.45,26.2790698],[56.4333333,26.274537],[56.4238889,26.2666667],[56.4283333,26.25],[56.4333333,26.2470588],[56.45,26.2456522],[56.4666667,26.2499738],[56.4677778,26.25],[56.4833333,26.2555556],[56.490625,26.25],[56.4923077,26.2333333],[56.4929293,26.2166667],[56.5,26.209375],[56.5088235,26.2],[56.5,26.1884615],[56.4929825,26.1833333],[56.4833333,26.1756944],[56.4755952,26.1666667],[56.4828006,26.15],[56.4833333,26.1465686],[56.4933333,26.1333333],[56.4833333,26.1172619],[56.482971,26.1166667],[56.4833333,26.1],[56.4804878,26.0833333],[56.4666667,26.0695122],[56.462,26.0666667],[56.45,26.052381],[56.4498024,26.05],[56.4352321,26.0333333],[56.4340278,26.0166667],[56.4380342,26.0],[56.4342784,25.9833333],[56.44,25.9666667],[56.45,25.9546667],[56.462963,25.95],[56.4666667,25.9472222],[56.4736111,25.9333333],[56.4666667,25.9181818],[56.4648148,25.9166667],[56.45,25.9071429],[56.4375,25.9],[56.4333333,25.897619],[56.4190476,25.8833333],[56.4166667,25.8722222],[56.4163121,25.8666667],[56.4073333,25.85],[56.4063492,25.8333333],[56.4,25.8166667],[56.3833333,25.8117647],[56.3753333,25.8],[56.3666667,25.7938095],[56.3608466,25.7833333],[56.3566667,25.7666667],[56.3525,25.75],[56.35,25.7477273],[56.3333333,25.7371212],[56.3205128,25.7333333],[56.3166667,25.7310606],[56.3,25.7242754],[56.2916667,25.7166667],[56.2900709,25.7],[56.29,25.6833333],[56.2833333,25.6694444],[56.2818182,25.6666667],[56.277957,25.65],[56.281746,25.6333333],[56.2833333,25.63125],[56.3,25.6215054],[56.31,25.6166667],[56.3166667,25.6140351],[56.3333333,25.611036],[56.35,25.6008475],[56.3529412,25.6],[56.3666667,25.5833333],[56.37,25.5666667],[56.3685897,25.55],[56.3755556,25.5333333],[56.3795455,25.5166667],[56.3771605,25.5],[56.3765432,25.4833333],[56.3758621,25.4666667],[56.3833333,25.4546296],[56.3864198,25.45],[56.384127,25.4333333],[56.3833333,25.4305556],[56.3797101,25.4166667],[56.3782051,25.4],[56.3758333,25.3833333],[56.3666667,25.371875],[56.3640625,25.3666667],[56.3666667,25.3643519],[56.3774306,25.35],[56.3833333,25.3408602],[56.3874269,25.3333333],[56.3853659,25.3166667],[56.3833333,25.3102564],[56.3794118,25.3],[56.379386,25.2833333],[56.3805556,25.2666667],[56.3785714,25.25],[56.3775641,25.2333333],[56.3798246,25.2166667],[56.3833333,25.2055556],[56.3850877,25.2],[56.3833333,25.1888889],[56.3822917,25.1833333],[56.3796296,25.1666667],[56.3803922,25.15],[56.3833333,25.1333333],[56.3884615,25.1166667],[56.3935897,25.1],[56.3961538,25.0833333],[56.3987179,25.0666667],[56.4,25.05],[56.4015152,25.0333333],[56.4022222,25.0166667],[56.405,25.0]],[[55.0,25.8566667],[55.0033333,25.85],[55.0166667,25.8411111],[55.0333333,25.8368421],[55.05,25.8395833],[55.0553763,25.85],[55.0595238,25.8666667],[55.0609524,25.8833333],[55.0532258,25.9],[55.05,25.905],[55.0402778,25.9166667],[55.0333333,25.9228395],[55.0166667,25.9283333],[55.0,25.9186275]],[[55.0,25.875],[55.0021739,25.8833333],[55.0,25.8916667]],[[55.0,26.4083333],[55.0166667,26.4083333],[55.0333333,26.4055556],[55.05,26.4055556],[55.0583333,26.4],[55.0666667,26.3958333],[55.0833333,26.39],[55.0944444,26.3833333],[55.1,26.3809524],[55.1166667,26.3833333],[55.1333333,26.3791667],[55.15,26.3785714],[55.1638889,26.3666667],[55.1666667,26.365625],[55.1833333,26.35625],[55.1944444,26.35],[55.2,26.3478261],[55.203125,26.35],[55.2166667,26.3608333],[55.2263889,26.3666667],[55.2333333,26.3805556],[55.2351852,26.3833333],[55.25,26.3928571],[55.2666667,26.3916667],[55.2833333,26.3940476],[55.3,26.3833333],[55.3166667,26.3866667],[55.325,26.3833333],[55.3333333,26.3766667],[55.337037,26.3833333],[55.35,26.3916667],[55.3666667,26.3935897],[55.3833333,26.396875],[55.4,26.3964286],[55.4166667,26.4],[55.4333333,26.4060606],[55.45,26.415],[55.4555556,26.4166667],[55.4666667,26.4203704],[55.4833333,26.4307692],[55.4875,26.4333333],[55.5,26.4410256],[55.5145833,26.45],[55.5166667,26.4515152],[55.5333333,26.4602564],[55.54375,26.4666667],[55.55,26.4722222],[55.5590909,26.4833333],[55.5666667,26.4952381],[55.575,26.5],[55.5833333,26.5066667],[55.5916667,26.5166667],[55.6,26.5238095],[55.6133333,26.5333333],[55.6166667,26.5357143],[55.6208333,26.5333333],[55.6333333,26.5302083],[55.6433333,26.5333333],[55.65,26.537037],[55.6561404,26.55],[55.65,26.5555556],[55.637037,26.5666667],[55.65,26.576],[55.6666667,26.5761905],[55.6757576,26.5833333],[55.6833333,26.5952381],[55.6888889,26.6],[55.6916667,26.6166667],[55.6916667,26.6333333],[55.7,26.6416667],[55.7166667,26.647619],[55.7183333,26.65],[55.7333333,26.6625],[55.75,26.6645833],[55.7666667,26.6595238],[55.7833333,26.65625],[55.8,26.6653846],[55.802381,26.6666667],[55.8166667,26.672549],[55.8333333,26.675],[55.8363636,26.6666667],[55.8377193,26.65],[55.8333333,26.6333333]],[[55.0111111,25.0],[55.0166667,25.0052632],[55.0229167,25.0]],[[55.3,26.7166667],[55.2979167,26.7],[55.3,26.6984848],[55.302381,26.7],[55.3,26.7166667]],[[55.3,26.7166667],[55.3166667,26.7142857],[55.3333333,26.7037037],[55.35,26.7],[55.3651515,26.7166667],[55.3666667,26.7222222],[55.375,26.7333333],[55.3666667,26.7357143],[55.35,26.7448718],[55.3411765,26.7333333],[55.3333333,26.7244444],[55.3166667,26.7185185],[55.3,26.7166667]],[[55.8333333,26.6333333],[55.8166667,26.6298246],[55.8125,26.6333333],[55.8166667,26.6365079],[55.8333333,26.6333333]],[[55.8333333,26.6333333],[55.842381,26.6166667],[55.8472222,26.6],[55.85,26.5986667],[55.8666667,26.6],[55.8833333,26.6052632],[55.9,26.6132184],[55.9037037,26.6166667],[55.9119048,26.6333333],[55.9166667,26.6434783],[55.9316667,26.65],[55.9333333,26.6527778],[55.9409091,26.6666667],[55.95,26.6738095],[55.9621212,26.6833333],[55.9666667,26.6859649],[55.9807018,26.7],[55.9833333,26.703125],[56.0,26.7041667],[56.0055556,26.7166667],[56.0166667,26.7238095],[56.0269231,26.7333333],[56.0333333,26.7375],[56.05,26.7472222],[56.0533333,26.75],[56.0666667,26.7611111],[56.0714286,26.7666667],[56.0833333,26.7752874],[56.0970588,26.7833333],[56.1,26.7859649],[56.1166667,26.7966667],[56.1183908,26.8],[56.1253968,26.8166667],[56.1333333,26.8228395],[56.1442308,26.8333333],[56.15,26.8408333],[56.1573333,26.85],[56.1666667,26.8645833],[56.16875,26.8666667],[56.175,26.8833333],[56.1833333,26.8961538],[56.1916667,26.9],[56.2,26.9025],[56.2166667,26.9035714],[56.2333333,26.902381],[56.2444444,26.9],[56.25,26.8966667],[56.2541667,26.9],[56.2666667,26.9071429],[56.275,26.9166667],[56.2833333,26.92],[56.3,26.9272727],[56.3020833,26.9333333],[56.3052632,26.95],[56.3057018,26.9666667],[56.3,26.9765152],[56.2925,26.9833333],[56.2833333,26.9964286],[56.2787879,27.0],[56.2791667,27.0166667],[56.2833333,27.0222222],[56.2916667,27.0166667],[56.3,27.015],[56.315,27.0],[56.3166667,26.9986111],[56.3333333,26.9833333],[56.35,26.99],[56.3666667,27.0],[56.3722222,27.0166667],[56.3666667,27.0333333],[56.3833333,27.0486111],[56.3913043,27.0333333],[56.4,27.0233333],[56.4133333,27.0166667],[56.4166667,27.0125],[56.4333333,27.0037037],[56.4444444,27.0],[56.45,26.997619],[56.4666667,26.99],[56.4833333,26.9875],[56.5,26.9916667],[56.5111111,27.0],[56.5166667,27.0083333],[56.5333333,27.0125],[56.5416667,27.0166667],[56.55,27.0208333],[56.5666667,27.0333333],[56.5833333,27.05],[56.6,27.05],[56.6166667,27.0566667],[56.6333333,27.0566667],[56.65,27.0583333],[56.6666667,27.0555556],[56.6833333,27.052381],[56.6888889,27.05],[56.7,27.0433333],[56.7166667,27.0361111],[56.7208333,27.0333333],[56.7333333,27.0233333],[56.7444444,27.0166667],[56.75,27.0133333],[56.7583333,27.0],[56.7666667,26.9888889],[56.7833333,26.9854167],[56.7854167,26.9833333],[56.8,26.96875],[56.8027778,26.9666667],[56.8166667,26.9527778],[56.81875,26.95],[56.8333333,26.9333333],[56.847619,26.9166667],[56.85,26.9133333],[56.8583333,26.9],[56.8666667,26.8866667],[56.8694444,26.8833333],[56.8791667,26.8666667],[56.8833333,26.8619048],[56.8925926,26.85],[56.9,26.8404762],[56.9083333,26.8333333],[56.9166667,26.8208333],[56.91875,26.8166667],[56.9259259,26.8],[56.9333333,26.7833333],[56.9424242,26.7666667],[56.95,26.75625],[56.9545455,26.75],[56.9648148,26.7333333],[56.9666667,26.7305556],[56.9785714,26.7166667],[56.9833333,26.7],[56.9925926,26.6833333],[56.9979167,26.6666667],[57.0,26.6583333],[57.002381,26.65],[57.0071429,26.6333333],[57.0119048,26.6166667],[57.0166667,26.6055556],[57.0190476,26.6],[57.0208333,26.5833333],[57.01875,26.5666667],[57.0185185,26.55],[57.0166667,26.5416667],[57.015,26.5333333],[57.0121212,26.5166667],[57.0111111,26.5],[57.0166667,26.4904762],[57.0261905,26.5],[57.0291667,26.5166667],[57.0333333,26.5178571],[57.034375,26.5166667],[57.0416667,26.5],[57.05,26.4928571],[57.0541667,26.4833333],[57.05,26.4794118],[57.0333333,26.472807],[57.0166667,26.4770833],[57.0083333,26.4666667],[57.0089744,26.45],[57.0102564,26.4333333],[57.0102564,26.4166667],[57.0138889,26.4],[57.0166667,26.3888889],[57.0177778,26.3833333],[57.0188889,26.3666667],[57.0239583,26.35],[57.0297619,26.3333333],[57.0333333,26.325],[57.0369048,26.3166667],[57.0422222,26.3],[57.05,26.2833333],[57.0569444,26.2666667],[57.0666667,26.25],[57.075,26.2333333],[57.0833333,26.2240741],[57.0884615,26.2166667],[57.0954545,26.2],[57.1,26.1928571],[57.1074074,26.1833333],[57.1166667,26.1666667],[57.1222222,26.15],[57.1272727,26.1333333],[57.130303,26.1166667],[57.1320513,26.1],[57.1311111,26.0833333],[57.13125,26.0666667],[57.1301587,26.05],[57.1306667,26.0333333],[57.1317204,26.0166667],[57.1325397,26.0],[57.1333333,25.9972222],[57.15,25.9864583],[57.15625,25.9833333],[57.1666667,25.9666667],[57.1833333,25.9595238],[57.1944444,25.95],[57.2,25.9416667],[57.2066667,25.9333333],[57.2166667,25.9233333],[57.2208333,25.9166667],[57.225,25.9],[57.2333333,25.8833333],[57.2425926,25.8666667],[57.25,25.8571429],[57.2535714,25.85],[57.2571429,25.8333333],[57.2666667,25.8166667],[57.2784314,25.8],[57.2833333,25.7958333],[57.29375,25.7833333],[57.3,25.7761905],[57.3035714,25.7833333],[57.3166667,25.7981982],[57.3272436,25.7833333],[57.3166667,25.767619],[57.3142857,25.7666667],[57.3166667,25.7653333],[57.3333333,25.7566667],[57.35,25.75],[57.3666667,25.7378788],[57.3766667,25.7333333],[57.3833333,25.7305556],[57.4,25.7240741],[57.4166667,25.72],[57.4222222,25.7166667],[57.4333333,25.71],[57.45,25.7047619],[57.4611111,25.7],[57.4666667,25.6981481],[57.4833333,25.6928571],[57.5,25.6857143]],[[55.0166667,25.4],[55.025,25.4166667],[55.0333333,25.425],[55.05,25.4166667],[55.05,25.4],[55.0333333,25.3833333],[55.0166667,25.4]],[[55.0765152,25.05],[55.0833333,25.044],[55.0886905,25.05],[55.0833333,25.06],[55.0765152,25.05]],[[55.0784722,26.2333333],[55.0805556,26.25],[55.0833333,26.2625],[55.0844444,26.2666667],[55.1,26.2768116],[55.1115385,26.2833333],[55.1166667,26.2856322],[55.1333333,26.2899123],[55.1382353,26.2833333],[55.1333333,26.2666667],[55.15,26.2528986],[55.1524691,26.25],[55.1621795,26.2333333],[55.15,26.225],[55.1333333,26.2220238],[55.1166667,26.2255208],[55.1,26.224],[55.0833333,26.2293103],[55.0784722,26.2333333]],[[55.0888889,26.25],[55.1,26.245],[55.1166667,26.2370647],[55.1285388,26.25],[55.1166667,26.262381],[55.1,26.255],[55.0888889,26.25]],[[55.215,26.6333333],[55.2166667,26.625],[55.2176471,26.6333333],[55.2166667,26.6343137],[55.215,26.6333333]],[[55.22,26.6166667],[55.2254386,26.6],[55.2258333,26.5833333],[55.222549,26.5666667],[55.2333333,26.5544444],[55.2407407,26.55],[55.25,26.5333333],[55.2666667,26.5166667],[55.277381,26.5333333],[55.2666667,26.5469697],[55.2592593,26.55],[55.25,26.5604167],[55.2464286,26.5666667],[55.2458333,26.5833333],[55.2483333,26.6],[55.2393939,26.6166667],[55.2333333,26.62],[55.22,26.6166667]],[[55.2443089,26.3],[55.25,26.2924731],[55.2649123,26.2833333],[55.2666667,26.2816667],[55.2754902,26.2666667],[55.2766667,26.25],[55.2761905,26.2333333],[55.2833333,26.2190476],[55.2866667,26.2166667],[55.2972222,26.2],[55.2987179,26.1833333],[55.2988095,26.1666667],[55.3,26.1659722],[55.3006667,26.1666667],[55.3027778,26.1833333],[55.3166667,26.1916667],[55.3333333,26.1833333],[55.3359649,26.2],[55.3333333,26.2166667],[55.3339506,26.2333333],[55.3347222,26.25],[55.3333333,26.2611111],[55.3328283,26.2666667],[55.3282609,26.2833333],[55.3166667,26.2922222],[55.3,26.2919048],[55.2833333,26.2953704],[55.278125,26.3],[55.2666667,26.3087302],[55.25,26.3093333],[55.2443089,26.3]],[[55.2694444,26.6833333],[55.2833333,26.6757576],[55.2916667,26.6833333],[55.2833333,26.6931373],[55.2694444,26.6833333]],[[55.299359,26.35],[55.3,26.3487179],[55.3166667,26.3388889],[55.3190476,26.35],[55.3166667,26.3666667],[55.3,26.3541667],[55.299359,26.35]],[[55.3234375,25.35],[55.3283333,25.3333333],[55.3277778,25.3166667],[55.3333333,25.3145833],[55.3353333,25.3166667],[55.3424242,25.3333333],[55.3491667,25.35],[55.3333333,25.3617284],[55.3234375,25.35]],[[55.34,25.3833333],[55.35,25.3708333],[55.3666667,25.37375],[55.382,25.3833333],[55.3666667,25.3956989],[55.35,25.3933333],[55.34,25.3833333]],[[55.3833333,26.7],[55.4,26.6928571],[55.4083333,26.7],[55.4,26.7142857],[55.3833333,26.7]],[[55.465,25.5666667],[55.4666667,25.5633333],[55.4685185,25.5666667],[55.4666667,25.5708333],[55.465,25.5666667]],[[55.490625,25.5166667],[55.5,25.5095238],[55.50625,25.5166667],[55.5,25.5291667],[55.490625,25.5166667]],[[55.4939394,26.7333333],[55.5,26.7285714],[55.5133333,26.7333333],[55.5,26.7393939],[55.4939394,26.7333333]],[[55.4981481,25.55],[55.5,25.5458333],[55.5125,25.5333333],[55.5166667,25.5322917],[55.5174242,25.5333333],[55.5285714,25.55],[55.5333333,25.5564103],[55.5403509,25.5666667],[55.55,25.5784946],[55.5546875,25.5833333],[55.5666667,25.5931624],[55.5758621,25.6],[55.5666667,25.6080808],[55.55,25.6088235],[55.5363636,25.6],[55.5333333,25.597619],[55.5179487,25.5833333],[55.5166667,25.5826087],[55.5044444,25.5666667],[55.5,25.5518519],[55.4981481,25.55]],[[55.59,26.8833333],[55.6,26.8666667],[55.6166667,26.8833333],[55.6,26.8940476],[55.59,26.8833333]],[[55.6333333,26.9166667],[55.6356322,26.9333333],[55.647619,26.95],[55.65,26.9513889],[55.6666667,26.9560606],[55.6833333,26.9615385],[55.6927083,26.95],[55.6877778,26.9333333],[55.6833333,26.930303],[55.6666667,26.9191667],[55.6648148,26.9166667],[55.65,26.904902],[55.6333333,26.9166667]],[[55.7117647,25.65],[55.7166667,25.6470238],[55.7212963,25.65],[55.7166667,25.6536232],[55.7117647,25.65]],[[55.7295455,26.8833333],[55.7333333,26.877381],[55.7397436,26.8833333],[55.7333333,26.8892857],[55.7295455,26.8833333]],[[55.7777778,26.9666667],[55.7833333,26.9618056],[55.7939394,26.9666667],[55.7833333,26.9783333],[55.7777778,26.9666667]],[[55.83,26.7],[55.8333333,26.69],[55.8395833,26.7],[55.8333333,26.7027778],[55.83,26.7]],[[55.855,26.9333333],[55.8666667,26.9210526],[55.8833333,26.93],[55.8848485,26.9333333],[55.8833333,26.9346154],[55.8666667,26.945614],[55.855,26.9333333]],[[55.8611111,25.75],[55.8666667,25.7466667],[55.8711111,25.75],[55.8666667,25.7530303],[55.8611111,25.75]],[[55.8738095,26.7],[55.8833333,26.6971014],[55.8877778,26.7],[55.8833333,26.7035088],[55.8738095,26.7]],[[55.952381,26.95],[55.9666667,26.9447368],[55.9731183,26.95],[55.9666667,26.9625],[55.952381,26.95]],[[55.9787037,25.8833333],[55.9833333,25.8777778],[55.9892857,25.8833333],[55.9833333,25.8885417],[55.9787037,25.8833333]],[[56.1416667,27.0333333],[56.15,27.0314815],[56.1555556,27.0333333],[56.15,27.0375],[56.1416667,27.0333333]],[[56.3048023,26.85],[56.305,26.8333333],[56.3116667,26.8166667],[56.3166667,26.8144928],[56.3333333,26.8096774],[56.35,26.8145833],[56.3560606,26.8166667],[56.3666667,26.8192593],[56.3833333,26.8252874],[56.3926667,26.8333333],[56.4,26.8379167],[56.4123932,26.85],[56.4166667,26.8575758],[56.4220721,26.8666667],[56.4216049,26.8833333],[56.4166667,26.8916667],[56.4,26.9],[56.3941176,26.9166667],[56.3833333,26.928125],[56.3666667,26.9188406],[56.35,26.9222222],[56.3428571,26.9166667],[56.3333333,26.9083333],[56.3166667,26.9],[56.3166667,26.8833333],[56.3112903,26.8666667],[56.3048023,26.85]],[[56.316129,25.6833333],[56.3166667,25.6830065],[56.3333333,25.6821138],[56.35,25.6747312],[56.3666667,25.6666667],[56.3833333,25.6592593],[56.4,25.6666667],[56.4035714,25.6833333],[56.4041667,25.7],[56.4060606,25.7166667],[56.4074074,25.7333333],[56.4047619,25.75],[56.4,25.7537037],[56.3833333,25.7520833],[56.3815789,25.75],[56.3763889,25.7333333],[56.3666667,25.7264706],[56.35,25.7211538],[56.3422222,25.7166667],[56.3333333,25.7064103],[56.3287037,25.7],[56.3166667,25.6845238],[56.316129,25.6833333]],[[56.3805556,26.15],[56.3833333,26.1484127],[56.385,26.15],[56.3833333,26.1504329],[56.3805556,26.15]],[[56.3818841,25.0166667],[56.3833333,25.0144444],[56.3916667,25.0166667],[56.3833333,25.0188889],[56.3818841,25.0166667]],[[56.3991228,26.1166667],[56.4,26.1164931],[56.4155229,26.1],[56.4166667,26.0958333],[56.4180392,26.1],[56.4261111,26.1166667],[56.4172464,26.1333333],[56.4166667,26.1338889],[56.4092593,26.1333333],[56.4,26.1194444],[56.3991228,26.1166667]],[[56.4161305,25.9833333],[56.4166667,25.9759259],[56.4280952,25.9833333],[56.4166667,25.9844],[56.4161305,25.9833333]],[[56.4422222,26.4166667],[56.45,26.4060606],[56.4564815,26.4166667],[56.45,26.4186111],[56.4422222,26.4166667]],[[56.4997396,26.5],[56.5,26.4997863],[56.5166667,26.4987745],[56.5212963,26.5],[56.5166667,26.5015152],[56.5,26.5004386],[56.4997396,26.5]],[[56.5083333,26.95],[56.5166667,26.9444444],[56.5188889,26.95],[56.5166667,26.9611111],[56.5083333,26.95]],[[56.515,26.4166667],[56.5166667,26.4111111],[56.5172619,26.4166667],[56.5166667,26.4169753],[56.515,26.4166667]],[[56.956,26.8333333],[56.9571429,26.8166667],[56.9666667,26.8055556],[56.9758621,26.8166667],[56.9833333,26.8222222],[56.9910714,26.8166667],[56.9944444,26.8],[56.9979167,26.7833333],[57.0,26.7722222],[57.0030303,26.7833333],[57.0046296,26.8],[57.0073529,26.8166667],[57.0,26.8291667],[56.9973118,26.8333333],[56.9833333,26.8488095],[56.9722222,26.85],[56.9666667,26.8511905],[56.9642857,26.85],[56.956,26.8333333]],[[57.0318182,26.7],[57.0333333,26.697619],[57.0346154,26.7],[57.0333333,26.7020833],[57.0318182,26.7]],[[57.0391892,26.5333333],[57.05,26.5230769],[57.0578125,26.5166667],[57.0666667,26.5031746],[57.0741228,26.5166667],[57.0675,26.5333333],[57.0666667,26.5345238],[57.05,26.5444444],[57.0391892,26.5333333]],[[57.0444444,26.6],[57.05,26.5944444],[57.0545455,26.6],[57.05,26.605],[57.0444444,26.6]]]}},{"type":"Feature","id":"etopo1-depth-50","properties":{"depthMetres":50,"source":"NOAA ETOPO1","kind":"regional-depth-contour","verticalDatum":"mean sea level"},"geometry":{"type":"MultiLineString","coordinates":[[[55.0,25.7916667],[55.0083333,25.8],[55.0,25.8083333]],[[55.0,25.9464912],[55.0166667,25.9462366],[55.0333333,25.95]],[[55.0,25.9560606],[55.0166667,25.9583333],[55.0333333,25.95]],[[55.0,26.0136364],[55.0027778,26.0166667],[55.0166667,26.0236111],[55.0277778,26.0166667],[55.0333333,26.00625],[55.0362745,26.0],[55.0414141,25.9833333],[55.0422222,25.9666667],[55.0333333,25.95]],[[55.0,26.3291667],[55.0166667,26.3291667],[55.0333333,26.3287037],[55.05,26.3309524],[55.0666667,26.3325],[55.07,26.3333333],[55.0833333,26.3380952],[55.1,26.3391667],[55.1166667,26.3412698],[55.1333333,26.3416667],[55.15,26.3416667],[55.165,26.3333333],[55.1666667,26.332716],[55.1833333,26.3301587],[55.2,26.3285714],[55.2166667,26.3301282],[55.2325758,26.3166667],[55.2314815,26.3],[55.2333333,26.2916667],[55.2364583,26.2833333],[55.2458333,26.2666667],[55.2383333,26.25],[55.2333333,26.2333333],[55.2166667,26.2216667],[55.2,26.22],[55.1933333,26.2166667],[55.1953704,26.2],[55.2,26.1978632],[55.2166667,26.1955556],[55.2333333,26.1988372],[55.25,26.1981982],[55.2627907,26.1833333],[55.2666667,26.1722222],[55.2704545,26.1666667],[55.2743056,26.15],[55.2833333,26.1405797],[55.3,26.1461111],[55.3011111,26.15],[55.3166667,26.1657051],[55.3333333,26.1651961],[55.35,26.1636667],[55.355,26.1666667],[55.3615385,26.1833333],[55.3601449,26.2],[55.3598039,26.2166667],[55.3560606,26.2333333],[55.3595238,26.25],[55.3602564,26.2666667],[55.3559524,26.2833333],[55.35,26.2909091],[55.3428571,26.3],[55.3333333,26.3133333],[55.33,26.3166667],[55.3333333,26.3233333],[55.3348485,26.3333333],[55.3389937,26.35],[55.35,26.3616667],[55.3666667,26.362381],[55.3833333,26.3626667],[55.4,26.3607843],[55.4166667,26.3626984],[55.4333333,26.3635417],[55.4383333,26.3666667],[55.45,26.375],[55.4666667,26.3791667],[55.4701754,26.3833333],[55.4833333,26.3933333],[55.5,26.3962963],[55.5166667,26.3989583],[55.5194444,26.4],[55.5333333,26.4083333],[55.55,26.4133333],[55.5666667,26.4119048],[55.5833333,26.41],[55.6,26.4055556],[55.6055556,26.4],[55.6166667,26.3966667],[55.6333333,26.395],[55.65,26.395],[55.6666667,26.3928571],[55.6833333,26.3904762],[55.7,26.3904762],[55.7166667,26.39375],[55.7333333,26.3958333],[55.75,26.3969697],[55.7666667,26.3986111],[55.7685185,26.4],[55.775,26.4166667],[55.7833333,26.4333333],[55.8,26.45],[55.8,26.4666667],[55.8,26.4833333],[55.7833333,26.5],[55.7833333,26.5166667],[55.7958333,26.5333333],[55.8,26.5416667],[55.8041667,26.55],[55.8166667,26.5625],[55.8333333,26.5666667],[55.85,26.5727273],[55.8666667,26.580303],[55.869697,26.5833333],[55.8833333,26.5888889],[55.9,26.5893939],[55.9083333,26.5833333],[55.9166667,26.5738095],[55.93,26.5833333],[55.9333333,26.5888889],[55.95,26.597619],[55.9666667,26.5928571],[55.9833333,26.5916667],[56.0,26.5966667],[56.0027778,26.6],[56.0083333,26.6166667],[56.0166667,26.6261905],[56.0291667,26.6333333],[56.0333333,26.6361111],[56.0416667,26.65],[56.05,26.6619048],[56.0555556,26.6666667],[56.0619048,26.6833333],[56.0666667,26.6944444],[56.0683333,26.7],[56.069697,26.7166667],[56.0833333,26.7316667],[56.0851852,26.7333333],[56.0895833,26.75],[56.1,26.7569444],[56.1166667,26.7604167],[56.1277778,26.7666667],[56.1333333,26.7791667],[56.1357143,26.7833333],[56.1444444,26.8],[56.15,26.8066667],[56.1537037,26.8],[56.1611111,26.7833333],[56.1666667,26.7770833],[56.1805556,26.7666667],[56.1833333,26.7655556],[56.2,26.7619048],[56.2166667,26.7601852],[56.2333333,26.7551282],[56.2466667,26.75],[56.25,26.7483333],[56.2666667,26.7454545],[56.2833333,26.7483333],[56.2861111,26.75],[56.3,26.7575758],[56.3058824,26.7666667],[56.3106667,26.7833333],[56.3166667,26.7912281],[56.3333333,26.7916667],[56.35,26.7977778],[56.3666667,26.797619],[56.3833333,26.7977778],[56.387037,26.8],[56.4,26.812963],[56.4025641,26.8166667],[56.4166667,26.8268519],[56.4283333,26.8333333],[56.4333333,26.8404762],[56.4384615,26.85],[56.4392857,26.8666667],[56.4429825,26.8833333],[56.45,26.8966667],[56.4666667,26.8916667],[56.4722222,26.8833333],[56.475,26.8666667],[56.4785714,26.85],[56.4805556,26.8333333],[56.4833333,26.8309524],[56.5,26.8261905],[56.5166667,26.83],[56.5277778,26.8166667],[56.5333333,26.8119048],[56.5472222,26.8],[56.55,26.7983333],[56.5607143,26.7833333],[56.5666667,26.775],[56.5742424,26.7833333],[56.5833333,26.7924242],[56.6,26.7972222],[56.6166667,26.7958333],[56.6333333,26.7944444],[56.65,26.7916667],[56.6666667,26.7916667],[56.6833333,26.7933333],[56.6933333,26.7833333],[56.7,26.7722222],[56.7083333,26.7666667],[56.7166667,26.7633333],[56.7261905,26.75],[56.7333333,26.7416667],[56.75,26.7416667],[56.7666667,26.7388889],[56.775,26.7333333],[56.7833333,26.7314815],[56.8,26.7309524],[56.8083333,26.7333333],[56.8166667,26.7416667],[56.825,26.7333333],[56.8333333,26.7291667],[56.85,26.7166667],[56.8666667,26.71],[56.8833333,26.7041667],[56.8875,26.7],[56.8952381,26.6833333],[56.8966667,26.6666667],[56.8944444,26.65],[56.9,26.6333333],[56.9166667,26.6277778],[56.9277778,26.6166667],[56.9291667,26.6],[56.9309524,26.5833333],[56.9333333,26.5777778],[56.94,26.5666667],[56.9416667,26.55],[56.9416667,26.5333333],[56.94375,26.5166667],[56.9479167,26.5],[56.95,26.4958333],[56.955,26.4833333],[56.9566667,26.4666667],[56.9590909,26.45],[56.962963,26.4333333],[56.9666667,26.4222222],[56.9681818,26.4166667],[56.9712121,26.4],[56.9733333,26.3833333],[56.9777778,26.3666667],[56.9833333,26.3566667],[56.9858974,26.35],[56.9888889,26.3333333],[56.9923077,26.3166667],[56.9966667,26.3],[57.0,26.2933333],[57.005,26.2833333],[57.0106061,26.2666667],[57.0166667,26.26],[57.0229167,26.25],[57.0269231,26.2333333],[57.0320513,26.2166667],[57.0333333,26.2142857],[57.0433333,26.2],[57.05,26.1944444],[57.0583333,26.1833333],[57.0633333,26.1666667],[57.0666667,26.1595238],[57.0727273,26.15],[57.0785714,26.1333333],[57.0833333,26.1277778],[57.0907407,26.1166667],[57.0938596,26.1],[57.0984127,26.0833333],[57.1,26.0777778],[57.1033333,26.0666667],[57.1072464,26.05],[57.1108974,26.0333333],[57.1150794,26.0166667],[57.1038462,26.0],[57.1,25.9972222],[57.0833333,25.9883333],[57.0666667,25.9876812],[57.0555556,25.9833333],[57.0644928,25.9666667],[57.0666667,25.9646667],[57.0833333,25.9537037],[57.087037,25.95],[57.098,25.9333333],[57.1,25.93125],[57.1166667,25.9216667],[57.1222222,25.9166667],[57.1325758,25.9],[57.1333333,25.8995833],[57.15,25.898],[57.164966,25.8833333],[57.1666667,25.8798611],[57.1798611,25.8666667],[57.1833333,25.8648148],[57.1984848,25.85],[57.2,25.8473333],[57.214,25.8333333],[57.2166667,25.8318519],[57.232197,25.8166667],[57.2333333,25.815],[57.2488506,25.8],[57.25,25.7993711],[57.2663462,25.7833333],[57.2666667,25.7829545],[57.2833333,25.7759804],[57.2918919,25.7666667],[57.3,25.7601449],[57.3133333,25.75],[57.3166667,25.7474638],[57.329932,25.7333333],[57.3331683,25.7166667],[57.3333333,25.7163522],[57.3490909,25.7],[57.35,25.6993056],[57.3666667,25.6972222],[57.3833333,25.6946078],[57.3970238,25.6833333],[57.4,25.6798611],[57.4166667,25.6763158],[57.428125,25.6666667],[57.4333333,25.6641414],[57.45,25.6614943],[57.4638889,25.65],[57.4666667,25.6458333],[57.4791667,25.6333333],[57.4833333,25.6222222],[57.4916667,25.6166667],[57.5,25.6145833]],[[55.0333333,25.95],[55.05,25.9452381],[55.0638889,25.9333333],[55.0666667,25.9291667],[55.0833333,25.9194444],[55.0888889,25.9166667],[55.1,25.9],[55.1166667,25.8916667],[55.12,25.8833333],[55.1166667,25.8666667],[55.1333333,25.85],[55.15,25.85],[55.1666667,25.8444444],[55.1833333,25.8375],[55.2,25.8333333],[55.2166667,25.8333333],[55.2333333,25.8388889],[55.25,25.8416667],[55.2666667,25.8444444],[55.2833333,25.8458333],[55.3,25.85],[55.3166667,25.8666667],[55.3333333,25.8666667],[55.35,25.8722222],[55.3611111,25.8833333],[55.36,25.9],[55.3666667,25.9166667],[55.3766667,25.9333333],[55.3833333,25.9416667],[55.3888889,25.95],[55.4,25.9566667],[55.4166667,25.9636364],[55.4333333,25.9625],[55.45,25.96],[55.4625,25.95],[55.4583333,25.9333333],[55.45,25.9285714],[55.445614,25.9166667],[55.4466667,25.9],[55.45,25.8958333],[55.4666667,25.8888889],[55.4777778,25.9],[55.4833333,25.9166667],[55.5,25.9333333],[55.5111111,25.95],[55.5166667,25.9555556],[55.5333333,25.9633333],[55.55,25.9625],[55.5541667,25.9666667],[55.5666667,25.9791667],[55.57,25.9833333],[55.5833333,25.9966667],[55.5916667,26.0],[55.6,26.0033333],[55.6166667,26.0111111],[55.6233333,26.0166667],[55.6333333,26.0238095],[55.6444444,26.0333333],[55.65,26.0361111],[55.6666667,26.035],[55.6722222,26.0333333],[55.6833333,26.0296296],[55.7,26.0285714],[55.7166667,26.0309524],[55.725,26.0333333],[55.7333333,26.0366667],[55.7466667,26.05],[55.75,26.0533333],[55.7666667,26.0666667],[55.7833333,26.0738095],[55.8,26.08],[55.8033333,26.0833333],[55.8166667,26.0888889],[55.8333333,26.0933333],[55.8466667,26.1],[55.85,26.1013889],[55.8666667,26.1083333],[55.8833333,26.1104167],[55.8972222,26.1],[55.9,26.0916667],[55.9166667,26.0916667],[55.9333333,26.1],[55.9444444,26.1166667],[55.95,26.12],[55.9666667,26.125],[55.9833333,26.1333333],[56.0,26.15],[56.0166667,26.155],[56.0333333,26.1555556],[56.04,26.1666667],[56.0454545,26.1833333],[56.05,26.1869048],[56.0666667,26.185],[56.0722222,26.1833333],[56.0833333,26.18],[56.1,26.1833333],[56.1166667,26.2],[56.1148148,26.2166667],[56.1166667,26.2180556],[56.1333333,26.225],[56.1366667,26.2333333],[56.15,26.2444444],[56.1583333,26.25],[56.1666667,26.2538462],[56.1818182,26.2666667],[56.1833333,26.2677083],[56.1949612,26.2833333],[56.1833333,26.2994624],[56.182716,26.3],[56.1794444,26.3166667],[56.1833333,26.32],[56.2,26.3179012],[56.2066667,26.3166667],[56.2166667,26.3137255],[56.2333333,26.3111111],[56.25,26.3104167],[56.2666667,26.3071429],[56.2833333,26.3142857],[56.2916667,26.3166667],[56.3,26.3176471],[56.3166667,26.3309524],[56.3184211,26.3333333],[56.3244624,26.35],[56.3227273,26.3666667],[56.322,26.3833333],[56.325,26.4],[56.3333333,26.4046296],[56.35,26.4069444],[56.3666667,26.4135417],[56.3690476,26.4166667],[56.3833333,26.4236434],[56.4,26.4217949],[56.4166667,26.4232026],[56.4333333,26.4241497],[56.45,26.4269444],[56.4666667,26.4231293],[56.4833333,26.4216667],[56.5,26.4195238],[56.5166667,26.4216049],[56.5261905,26.4166667],[56.5333333,26.4037634],[56.5364035,26.4],[56.547037,26.3833333],[56.55,26.3763158],[56.5531609,26.3666667],[56.55,26.3624031],[56.5437255,26.35],[56.5398649,26.3333333],[56.5361111,26.3166667],[56.5333333,26.3058333],[56.5306818,26.3],[56.5192708,26.2833333],[56.5166667,26.2795455],[56.5048611,26.2666667],[56.504878,26.25],[56.51,26.2333333],[56.5148148,26.2166667],[56.5166667,26.2145833],[56.519697,26.2166667],[56.5333333,26.2222222],[56.55,26.22625],[56.5636905,26.2166667],[56.5666667,26.2],[56.5596774,26.1833333],[56.55,26.1747619],[56.5333333,26.1703125],[56.5166667,26.1785714],[56.5,26.1692308],[56.4968254,26.1666667],[56.4929167,26.15],[56.5,26.1402299],[56.5054054,26.1333333],[56.5006173,26.1166667],[56.5,26.1142857],[56.4972222,26.1],[56.4946078,26.0833333],[56.4833333,26.0696429],[56.4803571,26.0666667],[56.4666667,26.0603825],[56.4569231,26.05],[56.45,26.0432836],[56.4415612,26.0333333],[56.4375,26.0166667],[56.45,26.000303],[56.4504831,26.0],[56.45,25.9997849],[56.4368557,25.9833333],[56.45,25.9678788],[56.4554054,25.9666667],[56.4666667,25.958805],[56.4833333,25.9518519],[56.4862745,25.95],[56.4944444,25.9333333],[56.4916667,25.9166667],[56.4845238,25.9],[56.4833333,25.8984848],[56.4666667,25.8845238],[56.4642857,25.8833333],[56.45,25.8666667],[56.4583333,25.85],[56.4666667,25.8333333],[56.469697,25.8166667],[56.4679487,25.8],[56.4666667,25.7958333],[56.4621212,25.7833333],[56.4589744,25.7666667],[56.4551282,25.75],[56.4511905,25.7333333],[56.45,25.7291667],[56.4461538,25.7166667],[56.4404762,25.7],[56.4354167,25.6833333],[56.4333333,25.6766667],[56.4303922,25.6666667],[56.4236111,25.65],[56.4166667,25.6430556],[56.4,25.6428571],[56.3833333,25.6445355],[56.3709877,25.65],[56.3666667,25.6531532],[56.35,25.6604167],[56.3391304,25.6666667],[56.3333333,25.6699187],[56.3166667,25.6732026],[56.3,25.6833333],[56.2953704,25.6666667],[56.2918803,25.65],[56.3,25.6382716],[56.3038095,25.6333333],[56.3166667,25.6245098],[56.3333333,25.6182099],[56.3342912,25.6166667],[56.35,25.6050847],[56.3666667,25.6004219],[56.3669872,25.6],[56.3697342,25.5833333],[56.3833333,25.5673861],[56.3864583,25.5666667],[56.3979167,25.55],[56.4,25.5466667],[56.4074074,25.5333333],[56.4055556,25.5166667],[56.4060606,25.5],[56.4074074,25.4833333],[56.4060606,25.4666667],[56.4083333,25.45],[56.4098039,25.4333333],[56.4083333,25.4166667],[56.4041667,25.4],[56.4015152,25.3833333],[56.4,25.38],[56.3904762,25.3666667],[56.3936508,25.35],[56.3961988,25.3333333],[56.397561,25.3166667],[56.4,25.3041667],[56.4041667,25.3],[56.4071429,25.2833333],[56.4020833,25.2666667],[56.4074074,25.25],[56.41,25.2333333],[56.4136364,25.2166667],[56.4166667,25.2],[56.4208333,25.1833333],[56.4229167,25.1666667],[56.425,25.15],[56.4283333,25.1333333],[56.4294872,25.1166667],[56.4333333,25.1041667],[56.4348485,25.1],[56.4393939,25.0833333],[56.4424242,25.0666667],[56.4435897,25.05],[56.4483333,25.0333333],[56.45,25.0277778],[56.4541667,25.0166667],[56.4547619,25.0]],[[55.0392157,26.1],[55.0479167,26.0833333],[55.05,26.0815789],[55.0666667,26.0825397],[55.0673077,26.0833333],[55.0719298,26.1],[55.0666667,26.11],[55.05,26.1166667],[55.0392157,26.1]],[[55.0604762,26.2333333],[55.0607143,26.25],[55.0638889,26.2666667],[55.0666667,26.2690476],[55.0833333,26.2756173],[55.0923913,26.2833333],[55.1,26.2954023],[55.1102564,26.3],[55.1166667,26.3033333],[55.1333333,26.3048611],[55.1384058,26.3],[55.1480392,26.2833333],[55.15,26.277451],[55.1587302,26.2666667],[55.1666667,26.2568627],[55.1705556,26.25],[55.1833333,26.2340278],[55.1851852,26.2333333],[55.1833333,26.2291667],[55.1787879,26.2166667],[55.1666667,26.2106061],[55.15,26.2083333],[55.1333333,26.2041667],[55.1166667,26.2068182],[55.1,26.2053571],[55.0833333,26.2106061],[55.0666667,26.2150794],[55.065625,26.2166667],[55.0604762,26.2333333]],[[55.1086957,26.25],[55.1166667,26.2445274],[55.1216895,26.25],[55.1166667,26.2552381],[55.1086957,26.25]],[[55.2466667,25.9],[55.25,25.8952381],[55.2619048,25.8833333],[55.2666667,25.8766667],[55.2833333,25.8777778],[55.3,25.8833333],[55.2983333,25.9],[55.2833333,25.9166667],[55.2666667,25.9269231],[55.2588235,25.9166667],[55.25,25.9030303],[55.2466667,25.9]],[[55.2774194,26.3166667],[55.2777778,26.3333333],[55.2833333,26.3361111],[55.2842105,26.3333333],[55.2986111,26.3166667],[55.2833333,26.3115741],[55.2774194,26.3166667]],[[55.3883333,26.2833333],[55.3939394,26.3],[55.3969697,26.3166667],[55.4,26.32],[55.4166667,26.3309524],[55.4333333,26.3222222],[55.4377778,26.3166667],[55.4377778,26.3],[55.4333333,26.2916667],[55.4288889,26.2833333],[55.4166667,26.2711111],[55.4033333,26.2666667],[55.4,26.265625],[55.3979167,26.2666667],[55.3883333,26.2833333]],[[55.9472222,26.4],[55.95,26.3985507],[55.9519608,26.4],[55.95,26.4016667],[55.9472222,26.4]],[[56.1222222,26.6666667],[56.1291667,26.6833333],[56.1333333,26.6893939],[56.15,26.69375],[56.1638889,26.6833333],[56.1666667,26.6666667],[56.1527778,26.65],[56.15,26.6481481],[56.1388889,26.65],[56.1333333,26.6511111],[56.1222222,26.6666667]],[[56.4477778,26.2666667],[56.45,26.2653846],[56.4666667,26.2561181],[56.4826923,26.2666667],[56.4666667,26.280791],[56.45,26.2674419],[56.4477778,26.2666667]],[[56.4919271,26.5],[56.5,26.4933761],[56.5166667,26.4914216],[56.5258333,26.4833333],[56.5333333,26.4791277],[56.539951,26.4833333],[56.5427778,26.5],[56.5333333,26.510119],[56.5166667,26.5106061],[56.5,26.5135965],[56.4919271,26.5]],[[56.7083333,26.7833333],[56.7166667,26.7722222],[56.7277778,26.7833333],[56.7166667,26.7916667],[56.7083333,26.7833333]],[[56.7638889,26.7],[56.7666667,26.697619],[56.7690476,26.7],[56.7666667,26.7041667],[56.7638889,26.7]],[[57.3154762,25.7833333],[57.3166667,25.7819048],[57.3176282,25.7833333],[57.3166667,25.7846847],[57.3154762,25.7833333]]]}},{"type":"Feature","id":"etopo1-depth-100","properties":{"depthMetres":100,"source":"NOAA ETOPO1","kind":"regional-depth-contour","verticalDatum":"mean sea level"},"geometry":{"type":"MultiLineString","coordinates":[[[56.5537037,25.0],[56.5538889,25.0166667],[56.55,25.0263889],[56.5453704,25.0333333],[56.5362319,25.05],[56.5333333,25.0595238],[56.5308333,25.0666667],[56.5275362,25.0833333],[56.5246032,25.1],[56.5227273,25.1166667],[56.5198413,25.1333333],[56.5183333,25.15],[56.5166667,25.1611111],[56.5153846,25.1666667],[56.5125,25.1833333],[56.5090909,25.2],[56.5066667,25.2166667],[56.505,25.2333333],[56.5055556,25.25],[56.5083333,25.2666667],[56.5119048,25.2833333],[56.5095238,25.3],[56.5071429,25.3166667],[56.5111111,25.3333333],[56.5166667,25.35],[56.5166667,25.3666667],[56.525,25.3833333],[56.5333333,25.3916667],[56.5388889,25.4],[56.55,25.4166667],[56.5666667,25.425],[56.5833333,25.4333333],[56.6,25.4333333],[56.6166667,25.4333333],[56.6333333,25.4277778],[56.65,25.4291667],[56.6666667,25.4333333],[56.6833333,25.4333333],[56.7,25.4166667],[56.7083333,25.4],[56.7166667,25.3958333],[56.7333333,25.3958333],[56.7416667,25.4],[56.75,25.4083333],[56.7555556,25.4166667],[56.7611111,25.4333333],[56.7583333,25.45],[56.7583333,25.4666667],[56.75,25.4833333],[56.75,25.5],[56.7555556,25.5166667],[56.7611111,25.5333333],[56.7611111,25.55],[56.7555556,25.5666667],[56.75,25.575],[56.7458333,25.5833333],[56.7416667,25.6],[56.7375,25.6166667],[56.7333333,25.6333333],[56.7222222,25.65],[56.7277778,25.6666667],[56.7333333,25.6833333],[56.7366667,25.7],[56.7366667,25.7166667],[56.7333333,25.725],[56.7277778,25.7333333],[56.7166667,25.7416667],[56.7,25.7416667],[56.6833333,25.7416667],[56.6666667,25.75],[56.6611111,25.7666667],[56.6666667,25.7833333],[56.675,25.8],[56.6833333,25.8166667],[56.6666667,25.8333333],[56.6638889,25.85],[56.6625,25.8666667],[56.6625,25.8833333],[56.65,25.9],[56.6388889,25.9166667],[56.6333333,25.9333333],[56.6166667,25.95],[56.6,25.9583333],[56.5944444,25.9666667],[56.5944444,25.9833333],[56.6,26.0],[56.6166667,26.01],[56.625,26.0166667],[56.6333333,26.0277778],[56.6416667,26.0333333],[56.6388889,26.05],[56.6333333,26.0666667],[56.6166667,26.0833333],[56.6,26.0777778],[56.5833333,26.0777778],[56.5791667,26.0833333],[56.5666667,26.1],[56.5571429,26.1166667],[56.55,26.1238095],[56.5433333,26.1333333],[56.55,26.1466667],[56.5541667,26.15],[56.5666667,26.1526316],[56.5814815,26.1666667],[56.5833333,26.1708333],[56.5895833,26.1833333],[56.5949275,26.2],[56.5944444,26.2166667],[56.5858974,26.2333333],[56.5833333,26.2355556],[56.5666667,26.2473333],[56.55,26.25],[56.5416667,26.2666667],[56.5449495,26.2833333],[56.5476667,26.3],[56.5467949,26.3166667],[56.55,26.3291667],[56.5530864,26.3333333],[56.5603448,26.35],[56.5666667,26.3630952],[56.5684524,26.3666667],[56.5666667,26.3833333],[56.5577236,26.4],[56.55,26.4098958],[56.5444444,26.4166667],[56.5333333,26.4226852],[56.5166667,26.429321],[56.5,26.4314286],[56.4916667,26.4333333],[56.4833333,26.4356322],[56.4666667,26.4398693],[56.45,26.4405914],[56.4333333,26.4408497],[56.4166667,26.4393082],[56.4,26.4422481],[56.3833333,26.443254],[56.3666667,26.4431034],[56.35,26.4405797],[56.3333333,26.4429825],[56.3166667,26.4439394],[56.3018519,26.45],[56.3083333,26.4666667],[56.3166667,26.4705128],[56.3333333,26.4833333],[56.35,26.4969697],[56.3583333,26.5],[56.3666667,26.5025641],[56.3833333,26.504902],[56.4,26.5107143],[56.4166667,26.5166667],[56.4333333,26.5166667],[56.45,26.512963],[56.4666667,26.5130952],[56.4732143,26.5],[56.4833333,26.4929167],[56.4980769,26.4833333],[56.5,26.4825521],[56.5166667,26.4796537],[56.5333333,26.4713396],[56.55,26.4801418],[56.5607143,26.4833333],[56.5666667,26.4871212],[56.575,26.4833333],[56.5833333,26.4802469],[56.6,26.4722222],[56.6047619,26.4666667],[56.612963,26.45],[56.6166667,26.4447368],[56.6321429,26.4333333],[56.6333333,26.4318182],[56.6472222,26.4166667],[56.65,26.4083333],[56.6566667,26.4],[56.6666667,26.3833333],[56.6814815,26.3666667],[56.6811111,26.35],[56.675641,26.3333333],[56.6666667,26.3216667],[56.6616667,26.3166667],[56.655,26.3],[56.6555556,26.2833333],[56.6518519,26.2666667],[56.65,26.2583333],[56.6481481,26.25],[56.65,26.2416667],[56.652381,26.2333333],[56.6583333,26.2166667],[56.6645833,26.2],[56.6666667,26.1944444],[56.6708333,26.1833333],[56.6761905,26.1666667],[56.6785714,26.15],[56.6809524,26.1333333],[56.6761905,26.1166667],[56.675,26.1],[56.6708333,26.0833333],[56.675,26.0666667],[56.6666667,26.05],[56.6666667,26.0333333],[56.6666667,26.0166667],[56.68,26.0],[56.6833333,25.9944444],[56.7,26.0],[56.7166667,26.0166667],[56.7166667,26.0333333],[56.7333333,26.05],[56.75,26.0416667],[56.7583333,26.0333333],[56.7666667,26.0166667],[56.775,26.0],[56.7833333,25.9916667],[56.7916667,25.9833333],[56.8,25.975],[56.8166667,25.9666667],[56.8333333,25.9583333],[56.8416667,25.95],[56.85,25.9416667],[56.8666667,25.9333333],[56.8666667,25.9166667],[56.8666667,25.9],[56.8583333,25.8833333],[56.85,25.875],[56.8444444,25.8666667],[56.8388889,25.85],[56.85,25.8333333],[56.8666667,25.8166667],[56.8833333,25.8],[56.8833333,25.7833333],[56.9,25.7666667],[56.9,25.7833333],[56.9,25.8],[56.9,25.8166667],[56.9083333,25.8333333],[56.9166667,25.8388889],[56.9333333,25.85],[56.9416667,25.8666667],[56.95,25.8833333],[56.9666667,25.8916667],[56.9833333,25.8916667],[56.9875,25.8833333],[56.9888889,25.8666667],[57.0,25.85],[57.0166667,25.8388889],[57.0333333,25.8333333],[57.0416667,25.85],[57.05,25.8666667],[57.0666667,25.8666667]],[[57.0666667,25.8666667],[57.0583333,25.8833333],[57.0583333,25.9],[57.0666667,25.9166667],[57.0833333,25.9041667],[57.0847222,25.9],[57.0833333,25.8916667],[57.075,25.8833333],[57.0666667,25.8666667]],[[57.0666667,25.8666667],[57.0833333,25.85],[57.0666667,25.8333333],[57.05,25.8166667],[57.05,25.8],[57.05,25.7833333],[57.0666667,25.7833333],[57.0666667,25.8],[57.0833333,25.8166667],[57.1,25.825],[57.1166667,25.8208333],[57.1208333,25.8166667],[57.1333333,25.8066667],[57.15,25.8],[57.1666667,25.797619],[57.175,25.8],[57.1833333,25.8027778],[57.2,25.81],[57.2166667,25.8030303],[57.218,25.8],[57.2333333,25.7883838],[57.25,25.7836478],[57.2503205,25.7833333],[57.262,25.7666667],[57.2666667,25.7633333],[57.2833333,25.7563333],[57.2910569,25.75],[57.3,25.7418519],[57.3112745,25.7333333],[57.3166667,25.7303279],[57.3249175,25.7166667],[57.3333333,25.7006289],[57.3339394,25.7],[57.35,25.6877315],[57.3593137,25.6833333],[57.3666667,25.6747126],[57.375,25.6666667],[57.3833333,25.6529412],[57.3895833,25.65],[57.4,25.6473118],[57.4166667,25.6438596],[57.4333333,25.6333333],[57.45,25.6208333],[57.4532051,25.6166667],[57.4666667,25.6032051],[57.4701389,25.6],[57.4833333,25.5878205],[57.4878205,25.5833333],[57.4890805,25.5666667],[57.4857143,25.55],[57.4897849,25.5333333],[57.5,25.518254]],[[55.2097222,26.1666667],[55.2126984,26.1833333],[55.2166667,26.1844444],[55.2222222,26.1833333],[55.2333333,26.1694444],[55.2354167,26.1666667],[55.2333333,26.1633333],[55.2166667,26.1625],[55.2097222,26.1666667]],[[55.3090476,26.15],[55.3118421,26.1333333],[55.3166667,26.1291667],[55.3333333,26.1258621],[55.35,26.1309524],[55.3547619,26.1333333],[55.35,26.1363636],[55.3428571,26.15],[55.3333333,26.1529412],[55.3166667,26.1576923],[55.3090476,26.15]],[[56.0416667,26.3],[56.0424242,26.3166667],[56.05,26.3242424],[56.0666667,26.325],[56.0833333,26.3222222],[56.1,26.32],[56.1166667,26.325],[56.1333333,26.33],[56.1444444,26.3166667],[56.1388889,26.3],[56.1333333,26.2958333],[56.1166667,26.2958333],[56.1,26.3],[56.0833333,26.297619],[56.0666667,26.2944444],[56.05,26.2933333],[56.0416667,26.3]],[[56.1625,26.35],[56.1666667,26.3488095],[56.1833333,26.3447917],[56.2,26.35],[56.2166667,26.36],[56.2333333,26.3583333],[56.25,26.3574074],[56.2666667,26.3666667],[56.28125,26.3833333],[56.275,26.4],[56.2681818,26.4166667],[56.2666667,26.4208333],[56.25,26.4238095],[56.24375,26.4166667],[56.2333333,26.4027778],[56.2316667,26.4],[56.225,26.3833333],[56.2166667,26.3722222],[56.2,26.3703704],[56.1833333,26.37],[56.1733333,26.3666667],[56.1666667,26.3555556],[56.1625,26.35]],[[56.3112319,25.65],[56.3166667,25.6434211],[56.3333333,25.65],[56.3166667,25.6555556],[56.3112319,25.65]],[[56.3340909,25.6333333],[56.3438697,25.6166667],[56.35,25.6121469],[56.3666667,25.6109705],[56.375,25.6],[56.3748466,25.5833333],[56.3833333,25.5733813],[56.4,25.5736842],[56.407971,25.5833333],[56.4110119,25.6],[56.4037037,25.6166667],[56.4,25.6208333],[56.3833333,25.6306061],[56.3761905,25.6333333],[56.3666667,25.6369697],[56.35,25.640942],[56.3340909,25.6333333]],[[56.4411512,25.9833333],[56.45,25.9729293],[56.4666667,25.9728856],[56.4801282,25.9833333],[56.4824074,26.0],[56.4780142,26.0166667],[56.4807018,26.0333333],[56.4666667,26.0428571],[56.4564103,26.0333333],[56.45,26.0308824],[56.443287,26.0166667],[56.45,26.0078788],[56.4625604,26.0],[56.45,25.9944086],[56.4411512,25.9833333]],[[56.9833333,25.95],[56.9833333,25.9666667],[56.99,25.9833333],[57.0,26.0],[57.0166667,25.99],[57.0183333,25.9833333],[57.0208333,25.9666667],[57.0333333,25.9541667],[57.05,25.95],[57.0527778,25.9333333],[57.05,25.9266667],[57.0333333,25.9277778],[57.0166667,25.9333333],[57.0,25.9388889],[56.9833333,25.95]]]}},{"type":"Feature","id":"etopo1-depth-200","properties":{"depthMetres":200,"source":"NOAA ETOPO1","kind":"regional-depth-contour","verticalDatum":"mean sea level"},"geometry":{"type":"MultiLineString","coordinates":[[[56.6527778,25.0],[56.65,25.0041667],[56.6428571,25.0166667],[56.6371795,25.0333333],[56.6361111,25.05],[56.6425926,25.0666667],[56.65,25.0761905],[56.6541667,25.0833333],[56.6583333,25.1],[56.6638889,25.1166667],[56.6666667,25.1333333],[56.6708333,25.15],[56.6833333,25.1625],[56.7,25.1645833],[56.7041667,25.1666667],[56.7166667,25.1722222],[56.7277778,25.1833333],[56.7333333,25.1933333],[56.7380952,25.2],[56.75,25.2166667],[56.7666667,25.2333333],[56.7833333,25.25],[56.8,25.2625],[56.8041667,25.2666667],[56.8166667,25.2791667],[56.8208333,25.2833333],[56.8333333,25.2958333],[56.8375,25.3],[56.85,25.3142857],[56.8520833,25.3166667],[56.8666667,25.33125],[56.8681818,25.3333333],[56.8811111,25.35],[56.8833333,25.3533333],[56.8896825,25.3666667],[56.8942308,25.3833333],[56.9,25.3969697],[56.9018519,25.4],[56.9166667,25.4115942],[56.9283333,25.4166667],[56.9333333,25.4186667],[56.95,25.4254902],[56.9666667,25.4333333],[56.9833333,25.4444444],[56.9884615,25.45],[57.0,25.465],[57.0010417,25.4666667],[57.0116667,25.4833333],[57.0166667,25.4924242],[57.02,25.5],[57.0283951,25.5166667],[57.0333333,25.5233333],[57.0433333,25.5333333],[57.05,25.5384615],[57.0666667,25.5472222],[57.0717949,25.55],[57.0833333,25.5571429],[57.097619,25.5666667],[57.1,25.5683333],[57.1166667,25.5808333],[57.1202381,25.5833333],[57.1333333,25.5903846],[57.15,25.5983333],[57.1545455,25.6],[57.1666667,25.6057971],[57.1833333,25.6150794],[57.1851852,25.6166667],[57.1962963,25.6333333],[57.2,25.6416667],[57.2044444,25.65],[57.2107143,25.6666667],[57.2166667,25.6770833],[57.2222222,25.6833333],[57.2333333,25.6895833],[57.25,25.6924242],[57.2666667,25.6863636],[57.2761905,25.6833333],[57.2833333,25.6815476],[57.2895833,25.6833333],[57.3,25.6875],[57.3166667,25.6833333],[57.3281609,25.6666667],[57.3333333,25.6611111],[57.3404762,25.65],[57.35,25.6411111],[57.3594595,25.6333333],[57.3666667,25.6275362],[57.3809524,25.6166667],[57.3833333,25.6144144],[57.3990196,25.6],[57.4,25.5990196],[57.4166667,25.5852381],[57.4195652,25.5833333],[57.4333333,25.5737374],[57.4423077,25.5666667],[57.45,25.56],[57.4553571,25.55],[57.4588889,25.5333333],[57.4628205,25.5166667],[57.4666667,25.5],[57.4793333,25.4833333],[57.4833333,25.477451],[57.4947917,25.4666667],[57.5,25.4547619]],[[56.4497423,25.9833333],[56.45,25.9830303],[56.4508197,25.9833333],[56.45,25.9836559],[56.4497423,25.9833333]],[[56.5107143,26.45],[56.5166667,26.447191],[56.5262821,26.45],[56.5166667,26.4545455],[56.5107143,26.45]],[[56.8816667,25.1333333],[56.8829861,25.15],[56.8833333,25.1504762],[56.9,25.1666667],[56.9166667,25.1786822],[56.9240741,25.1833333],[56.9333333,25.1897436],[56.95,25.1953488],[56.9666667,25.1966667],[56.9833333,25.1926901],[57.0,25.1843284],[57.0010753,25.1833333],[57.0021053,25.1666667],[57.0,25.1620155],[56.9939922,25.15],[56.9833333,25.1374429],[56.9773333,25.1333333],[56.9666667,25.1270588],[56.95,25.1206573],[56.9408602,25.1166667],[56.9333333,25.1138211],[56.9166667,25.1101732],[56.9,25.1130769],[56.8910256,25.1166667],[56.8833333,25.1284314],[56.8816667,25.1333333]]]}},{"type":"Feature","id":"etopo1-depth-500","properties":{"depthMetres":500,"source":"NOAA ETOPO1","kind":"regional-depth-contour","verticalDatum":"mean sea level"},"geometry":{"type":"MultiLineString","coordinates":[[[56.9394484,25.0],[56.9333333,25.0160377],[56.9330357,25.0166667],[56.9268868,25.0333333],[56.9271739,25.05],[56.9333333,25.0584577],[56.9404762,25.0666667],[56.95,25.0723077],[56.9666667,25.0810049],[56.971393,25.0833333],[56.9833333,25.0899449],[56.9971591,25.1],[57.0,25.1023585],[57.0130747,25.1166667],[57.0166667,25.1211957],[57.0249383,25.1333333],[57.0333333,25.1484444],[57.0340491,25.15],[57.039537,25.1666667],[57.0401802,25.1833333],[57.0333333,25.2],[57.0214597,25.2166667],[57.0166667,25.2257202],[57.0115702,25.2333333],[57.0067204,25.25],[57.0062667,25.2666667],[57.0122222,25.2833333],[57.0166667,25.2886973],[57.0256881,25.3],[57.0333333,25.3071839],[57.0455556,25.3166667],[57.05,25.32173],[57.0602996,25.3333333],[57.0666667,25.3401606],[57.0786765,25.35],[57.0833333,25.353442],[57.1,25.3640893],[57.104386,25.3666667],[57.1166667,25.3758772],[57.1266082,25.3833333],[57.1333333,25.390566],[57.1452381,25.4],[57.15,25.4055556],[57.1633333,25.4166667],[57.1666667,25.4193694],[57.1833333,25.4333333],[57.2,25.4427536],[57.2166667,25.4494152],[57.2175926,25.45],[57.2333333,25.4613333],[57.2466667,25.4666667],[57.25,25.4679245],[57.2666667,25.469774],[57.2833333,25.4680791],[57.2877193,25.4666667],[57.3,25.4619048],[57.3166667,25.4523256],[57.3201149,25.45],[57.3333333,25.4393519],[57.3441667,25.4333333],[57.35,25.4301802],[57.3666667,25.4263889],[57.3833333,25.4197531],[57.3854701,25.4166667],[57.3951515,25.4],[57.4,25.3921569],[57.4039474,25.3833333],[57.4155556,25.3666667],[57.4166667,25.3654229],[57.4330688,25.35],[57.4333333,25.3497653],[57.45,25.3364583],[57.4636364,25.3333333],[57.4666667,25.3328571],[57.475,25.3333333],[57.4833333,25.3344444],[57.4880952,25.3333333],[57.5,25.3318966]]]}},{"type":"Feature","id":"etopo1-depth-1000","properties":{"depthMetres":1000,"source":"NOAA ETOPO1","kind":"regional-depth-contour","verticalDatum":"mean sea level"},"geometry":{"type":"MultiLineString","coordinates":[[[57.025,25.0],[57.0271605,25.0166667],[57.0333333,25.022619],[57.0436782,25.0333333],[57.05,25.0382883],[57.0611111,25.05],[57.0666667,25.0567708],[57.0722222,25.0666667],[57.0787671,25.0833333],[57.0824176,25.1],[57.0833333,25.1059524],[57.0848958,25.1166667],[57.0865152,25.1333333],[57.0871585,25.15],[57.0868852,25.1666667],[57.0839506,25.1833333],[57.0833333,25.1857143],[57.0806843,25.2],[57.0747268,25.2166667],[57.0689139,25.2333333],[57.0666667,25.2487179],[57.0664912,25.25],[57.0666667,25.250463],[57.0774691,25.2666667],[57.0833333,25.2703922],[57.1,25.281982],[57.1018868,25.2833333],[57.1166667,25.2926587],[57.1300725,25.3],[57.1333333,25.3015789],[57.15,25.3094697],[57.1629252,25.3166667],[57.1666667,25.3182749],[57.1833333,25.3257576],[57.2,25.3308333],[57.2166667,25.3323077],[57.2333333,25.3269972],[57.25,25.3197333],[57.2578231,25.3166667],[57.2666667,25.3111814],[57.2833333,25.3071429],[57.3,25.3070621],[57.3166667,25.3106481],[57.3333333,25.3003546],[57.3341667,25.3],[57.3333333,25.2958333],[57.3314103,25.2833333],[57.3166667,25.2713542],[57.3134752,25.2666667],[57.3091324,25.25],[57.3129412,25.2333333],[57.3166667,25.2283854],[57.3298246,25.2166667],[57.3333333,25.2153928],[57.35,25.2112281],[57.3666667,25.213789],[57.3764228,25.2166667],[57.3833333,25.2225694],[57.3932692,25.2333333],[57.3981982,25.25],[57.3972222,25.2666667],[57.4,25.2685185],[57.4166667,25.2677778],[57.4333333,25.2686147],[57.4483333,25.2666667],[57.45,25.2663934],[57.4666667,25.2563786],[57.4764151,25.25],[57.4833333,25.2448357],[57.4974138,25.2333333],[57.5,25.2306548]],[[57.3722222,25.2833333],[57.3833333,25.2742424],[57.3904762,25.2833333],[57.3833333,25.287037],[57.3722222,25.2833333]]]}}]}
