{"type":"FeatureCollection","bbox":[55,25,57.5,27.5],"features":[{"type":"Feature","id":"node/1293791037","geometry":{"type":"Point","coordinates":[56.5382758,26.4772593]},"properties":{"osmId":"1293791037","osmType":"node","osmUrl":"https://www.openstreetmap.org/node/1293791037","osmVersion":5,"osmTimestamp":"2019-07-29T19:51:43Z","seamarkType":"landmark","aidClass":"landmark","category":"navigation-aid","tags":{"seamark:information":"Light and Racon obscured by As Salamah Island 133°-142° and Fanaku Island 156°-160°45´.","seamark:landmark:height":"79","seamark:light:character":"Fl","seamark:light:colour":"white","seamark:light:group":"2","seamark:light:height":"60","seamark:light:period":"10","seamark:light:range":"23","seamark:light:reference":"D 7335","seamark:light:sequence":"0.2+(1.6)+0.2+(8)","seamark:name":"Didamar.","seamark:radar_transponder:category":"racon","seamark:radar_transponder:group":"Q","seamark:type":"landmark","source":"US NGA Pub. 112. 2009-11-12."},"name":"Didamar."}},{"type":"Feature","id":"node/1293791045","geometry":{"type":"Point","coordinates":[56.2965852,25.6155124]},"properties":{"osmId":"1293791045","osmType":"node","osmUrl":"https://www.openstreetmap.org/node/1293791045","osmVersion":3,"osmTimestamp":"2013-03-12T08:11:43Z","seamarkType":"light_minor","aidClass":"light","category":"navigation-aid","tags":{"seamark:light:character":"Oc","seamark:light:colour":"red","seamark:light:period":"2.5","seamark:light:reference":"D 7333","seamark:type":"light_minor","source":"US NGA Pub. 112. 2009-11-12."}}},{"type":"Feature","id":"node/1293791553","geometry":{"type":"Point","coordinates":[56.8029333,27.0853833]},"properties":{"osmId":"1293791553","osmType":"node","osmUrl":"https://www.openstreetmap.org/node/1293791553","osmVersion":2,"osmTimestamp":"2015-02-25T09:11:57Z","seamarkType":"light_minor","aidClass":"light","category":"navigation-aid","tags":{"seamark:light:character":"Fl","seamark:light:colour":"white","seamark:light:height":"2","seamark:light:period":"3","seamark:light:range":"7","seamark:light:reference":"D 7710","seamark:name":"Khowr-e Minab","seamark:type":"light_minor","source":"US NGA Pub. 112. 2009-11-12."},"name":"Khowr-e Minab"}},{"type":"Feature","id":"node/1293791566","geometry":{"type":"Point","coordinates":[56.2064867,27.1295322]},"properties":{"osmId":"1293791566","osmType":"node","osmUrl":"https://www.openstreetmap.org/node/1293791566","osmVersion":3,"osmTimestamp":"2014-08-23T06:26:01Z","seamarkType":"light_minor","aidClass":"light","category":"navigation-aid","tags":{"seamark:light:character":"Iso","seamark:light:colour":"green","seamark:light:height":"6","seamark:light:period":"4","seamark:light:range":"5","seamark:light:reference":"D 7709","seamark:name":"Bandar ‘Abbas","seamark:type":"light_minor","source":"US NGA Pub. 112. 2009-11-12."},"name":"Bandar ‘Abbas"}},{"type":"Feature","id":"node/1293791575","geometry":{"type":"Point","coordinates":[56.2020047,27.1285712]},"properties":{"osmId":"1293791575","osmType":"node","osmUrl":"https://www.openstreetmap.org/node/1293791575","osmVersion":3,"osmTimestamp":"2014-08-23T06:26:02Z","seamarkType":"light_minor","aidClass":"light","category":"navigation-aid","tags":{"seamark:light:character":"Iso","seamark:light:colour":"red","seamark:light:height":"6","seamark:light:period":"4","seamark:light:range":"6","seamark:light:reference":"D 7709.2","seamark:type":"light_minor","source":"US NGA Pub. 112. 2009-11-12."}}},{"type":"Feature","id":"node/1293791614","geometry":{"type":"Point","coordinates":[56.2058402,27.1381417]},"properties":{"osmId":"1293791614","osmType":"node","osmUrl":"https://www.openstreetmap.org/node/1293791614","osmVersion":2,"osmTimestamp":"2015-02-25T09:11:58Z","seamarkType":"light_minor","aidClass":"light","category":"navigation-aid","tags":{"seamark:light:character":"Fl","seamark:light:colour":"green","seamark:light:height":"3","seamark:light:period":"5","seamark:light:reference":"D 7709.7","seamark:type":"light_minor","source":"US NGA Pub. 112. 2009-11-12."}}},{"type":"Feature","id":"node/1293791620","geometry":{"type":"Point","coordinates":[56.2028891,27.1381035]},"properties":{"osmId":"1293791620","osmType":"node","osmUrl":"https://www.openstreetmap.org/node/1293791620","osmVersion":2,"osmTimestamp":"2015-02-25T09:11:58Z","seamarkType":"light_minor","aidClass":"light","category":"navigation-aid","tags":{"seamark:light:character":"Q","seamark:light:colour":"red","seamark:light:height":"3","seamark:light:reference":"D 7709.6","seamark:type":"light_minor","source":"US NGA Pub. 112. 2009-11-12."}}},{"type":"Feature","id":"node/1293791633","geometry":{"type":"Point","coordinates":[56.0404,27.0952]},"properties":{"osmId":"1293791633","osmType":"node","osmUrl":"https://www.openstreetmap.org/node/1293791633","osmVersion":2,"osmTimestamp":"2015-02-25T09:11:58Z","seamarkType":"light_minor","aidClass":"light","category":"navigation-aid","tags":{"seamark:light:category":"lower","seamark:light:character":"Oc","seamark:light:colour":"white","seamark:light:height":"24","seamark:light:period":"4","seamark:light:range":"12","seamark:light:reference":"D 7707","seamark:type":"light_minor","source":"US NGA Pub. 112. 2009-11-12."}}},{"type":"Feature","id":"node/1293791640","geometry":{"type":"Point","coordinates":[56.0200333,27.0997167]},"properties":{"osmId":"1293791640","osmType":"node","osmUrl":"https://www.openstreetmap.org/node/1293791640","osmVersion":2,"osmTimestamp":"2015-02-25T09:11:59Z","seamarkType":"light_minor","aidClass":"light","category":"navigation-aid","tags":{"seamark:light:category":"upper","seamark:light:character":"Oc","seamark:light:colour":"white","seamark:light:height":"44","seamark:light:period":"4","seamark:light:range":"12","seamark:light:reference":"D 7707.1","seamark:type":"light_minor","source":"US NGA Pub. 112. 2009-11-12."}}},{"type":"Feature","id":"node/1293791650","geometry":{"type":"Point","coordinates":[56.0922,27.1215503]},"properties":{"osmId":"1293791650","osmType":"node","osmUrl":"https://www.openstreetmap.org/node/1293791650","osmVersion":2,"osmTimestamp":"2015-02-25T09:11:59Z","seamarkType":"light_major","aidClass":"light","category":"navigation-aid","tags":{"seamark:light:1:character":"Iso","seamark:light:1:colour":"white","seamark:light:1:height":"33","seamark:light:1:period":"2","seamark:light:1:range":"15","seamark:light:1:sector_end":"272.7","seamark:light:1:sector_start":"271.3","seamark:light:2:character":"Iso","seamark:light:2:colour":"red","seamark:light:2:height":"33","seamark:light:2:period":"2","seamark:light:2:range":"15","seamark:light:2:sector_end":"273.7","seamark:light:2:sector_start":"272.7","seamark:light:3:character":"Iso","seamark:light:3:colour":"green","seamark:light:3:height":"33","seamark:light:3:period":"2","seamark:light:3:range":"15","seamark:light:3:sector_end":"271.3","seamark:light:3:sector_start":"270.3","seamark:light:reference":"D 7707.5","seamark:name":"Hormozgan","seamark:radar_transponder:category":"racon","seamark:radar_transponder:group":"C","seamark:type":"light_major","source":"US NGA Pub. 112. 2009-11-12."},"name":"Hormozgan"}},{"type":"Feature","id":"node/1293791671","geometry":{"type":"Point","coordinates":[56.0727201,27.089847]},"properties":{"osmId":"1293791671","osmType":"node","osmUrl":"https://www.openstreetmap.org/node/1293791671","osmVersion":3,"osmTimestamp":"2014-08-23T06:26:02Z","seamarkType":"light_minor","aidClass":"light","category":"navigation-aid","tags":{"seamark:light:character":"Fl","seamark:light:colour":"green","seamark:light:period":"3","seamark:light:reference":"D 7708","seamark:type":"light_minor","source":"US NGA Pub. 112. 2009-11-12."}}},{"type":"Feature","id":"node/1293791681","geometry":{"type":"Point","coordinates":[56.0693333,27.0867167]},"properties":{"osmId":"1293791681","osmType":"node","osmUrl":"https://www.openstreetmap.org/node/1293791681","osmVersion":4,"osmTimestamp":"2015-02-25T09:11:59Z","seamarkType":"light_minor","aidClass":"light","category":"navigation-aid","tags":{"seamark:light:character":"Fl","seamark:light:colour":"red","seamark:light:period":"2","seamark:light:reference":"D 7708.2","seamark:type":"light_minor","source":"US NGA Pub. 112. 2009-11-12."}}},{"type":"Feature","id":"node/1293791688","geometry":{"type":"Point","coordinates":[56.0680745,27.0919316]},"properties":{"osmId":"1293791688","osmType":"node","osmUrl":"https://www.openstreetmap.org/node/1293791688","osmVersion":2,"osmTimestamp":"2015-02-25T09:11:59Z","seamarkType":"light_minor","aidClass":"light","category":"navigation-aid","tags":{"seamark:light:character":"Fl","seamark:light:colour":"green","seamark:light:group":"3","seamark:light:period":"10","seamark:light:reference":"D 7708.4","seamark:type":"light_minor","source":"US NGA Pub. 112. 2009-11-12."}}},{"type":"Feature","id":"node/1293791695","geometry":{"type":"Point","coordinates":[56.0643667,27.0878667]},"properties":{"osmId":"1293791695","osmType":"node","osmUrl":"https://www.openstreetmap.org/node/1293791695","osmVersion":2,"osmTimestamp":"2015-02-25T09:11:59Z","seamarkType":"light_minor","aidClass":"light","category":"navigation-aid","tags":{"seamark:light:character":"Fl","seamark:light:colour":"red","seamark:light:group":"3","seamark:light:period":"10","seamark:light:reference":"D 7708.5","seamark:type":"light_minor","source":"US NGA Pub. 112. 2009-11-12."}}},{"type":"Feature","id":"node/1293791709","geometry":{"type":"Point","coordinates":[56.353638,26.8858398]},"properties":{"osmId":"1293791709","osmType":"node","osmUrl":"https://www.openstreetmap.org/node/1293791709","osmVersion":3,"osmTimestamp":"2017-02-13T21:42:25Z","seamarkType":"landmark","aidClass":"landmark","category":"navigation-aid","tags":{"name":"لارک","seamark:light:character":"Fl","seamark:light:colour":"white","seamark:light:group":"2","seamark:light:height":"40","seamark:light:period":"10","seamark:light:range":"18","seamark:light:reference":"D 7337.5","seamark:name":"Jazireh-ye Larak, N. coast.","seamark:type":"landmark","source":"US NGA Pub. 112. 2009-11-12."},"name":"Jazireh-ye Larak, N. coast."}},{"type":"Feature","id":"node/1293791749","geometry":{"type":"Point","coordinates":[56.3612841,26.3666286]},"properties":{"osmId":"1293791749","osmType":"node","osmUrl":"https://www.openstreetmap.org/node/1293791749","osmVersion":5,"osmTimestamp":"2013-09-18T14:38:14Z","seamarkType":"light_minor","aidClass":"light","category":"navigation-aid","tags":{"seamark:light:character":"Fl","seamark:light:colour":"white","seamark:light:height":"2","seamark:light:period":"3","seamark:light:range":"3","seamark:light:reference":"D 7340.2","seamark:light:sequence":"1+(2)","seamark:name":"Ghabnat Karban","seamark:radar_reflector":"yes","seamark:type":"light_minor","source":"US NGA Pub. 112. 2009-11-12."},"name":"Ghabnat Karban"}},{"type":"Feature","id":"node/1293791768","geometry":{"type":"Point","coordinates":[56.3619951,26.3675187]},"properties":{"osmId":"1293791768","osmType":"node","osmUrl":"https://www.openstreetmap.org/node/1293791768","osmVersion":4,"osmTimestamp":"2015-08-28T15:01:58Z","seamarkType":"light_minor","aidClass":"light","category":"navigation-aid","tags":{"seamark:light:character":"Fl","seamark:light:colour":"red","seamark:light:height":"6","seamark:light:period":"5","seamark:light:range":"3","seamark:light:reference":"D 7340.4","seamark:type":"light_minor","source":"US NGA Pub. 112. 2009-11-12."}}},{"type":"Feature","id":"node/1293791782","geometry":{"type":"Point","coordinates":[56.3610302,26.367364]},"properties":{"osmId":"1293791782","osmType":"node","osmUrl":"https://www.openstreetmap.org/node/1293791782","osmVersion":4,"osmTimestamp":"2015-08-28T15:01:59Z","seamarkType":"light_minor","aidClass":"light","category":"navigation-aid","tags":{"seamark:light:character":"LFl","seamark:light:colour":"red","seamark:light:height":"6","seamark:light:period":"10","seamark:light:range":"3","seamark:light:reference":"D 7340.5","seamark:type":"light_minor","source":"US NGA Pub. 112. 2009-11-12."}}},{"type":"Feature","id":"node/1293791797","geometry":{"type":"Point","coordinates":[56.3599063,26.3644237]},"properties":{"osmId":"1293791797","osmType":"node","osmUrl":"https://www.openstreetmap.org/node/1293791797","osmVersion":3,"osmTimestamp":"2014-08-23T06:24:23Z","seamarkType":"light_minor","aidClass":"light","category":"navigation-aid","tags":{"seamark:light:character":"Fl","seamark:light:colour":"white","seamark:light:height":"2","seamark:light:period":"3","seamark:light:range":"3","seamark:light:reference":"D 7340","seamark:name":"Khawr Al Quway","seamark:type":"light_minor","source":"US NGA Pub. 112. 2009-11-12."},"name":"Khawr Al Quway"}},{"type":"Feature","id":"node/1293791799","geometry":{"type":"Point","coordinates":[56.1466448,26.1502773]},"properties":{"osmId":"1293791799","osmType":"node","osmUrl":"https://www.openstreetmap.org/node/1293791799","osmVersion":5,"osmTimestamp":"2021-05-16T13:48:19Z","seamarkType":"light_minor","aidClass":"light","category":"navigation-aid","tags":{"seamark:light:character":"Iso","seamark:light:colour":"green","seamark:light:height":"7","seamark:light:period":"2","seamark:light:reference":"D 7334.8","seamark:name":"Bukha","seamark:type":"light_minor","source":"US NGA Pub. 112. 2009-11-12."},"name":"Bukha"}},{"type":"Feature","id":"node/1293791816","geometry":{"type":"Point","coordinates":[56.1462918,26.1493464]},"properties":{"osmId":"1293791816","osmType":"node","osmUrl":"https://www.openstreetmap.org/node/1293791816","osmVersion":4,"osmTimestamp":"2015-08-28T15:01:59Z","seamarkType":"light_minor","aidClass":"light","category":"navigation-aid","tags":{"seamark:light:character":"Iso","seamark:light:colour":"red","seamark:light:height":"7","seamark:light:period":"2","seamark:light:range":"5","seamark:light:reference":"D 7334.85","seamark:type":"light_minor","source":"US NGA Pub. 112. 2009-11-12."}}},{"type":"Feature","id":"node/1293791819","geometry":{"type":"Point","coordinates":[56.0823188,26.0493148]},"properties":{"osmId":"1293791819","osmType":"node","osmUrl":"https://www.openstreetmap.org/node/1293791819","osmVersion":3,"osmTimestamp":"2013-12-03T11:27:36Z","seamarkType":"light_minor","aidClass":"light","category":"navigation-aid","tags":{"seamark:light:character":"Fl","seamark:light:colour":"yellow","seamark:light:group":"2","seamark:light:height":"6","seamark:light:period":"10","seamark:light:range":"5","seamark:light:reference":"D 7341","seamark:name":"Al Jeeb","seamark:type":"light_minor","source":"US NGA Pub. 112. 2009-11-12."},"name":"Al Jeeb"}},{"type":"Feature","id":"node/1293791835","geometry":{"type":"Point","coordinates":[56.071025,26.0018624]},"properties":{"osmId":"1293791835","osmType":"node","osmUrl":"https://www.openstreetmap.org/node/1293791835","osmVersion":3,"osmTimestamp":"2013-12-03T11:27:36Z","seamarkType":"light_minor","aidClass":"light","category":"navigation-aid","tags":{"seamark:light:character":"Fl","seamark:light:colour":"yellow","seamark:light:group":"3","seamark:light:height":"6","seamark:light:period":"15","seamark:light:range":"5","seamark:light:reference":"D 7344","seamark:name":"Ghalilah","seamark:type":"light_minor","source":"US NGA Pub. 112. 2009-11-12."},"name":"Ghalilah"}},{"type":"Feature","id":"node/1293791850","geometry":{"type":"Point","coordinates":[56.0790569,26.0305521]},"properties":{"osmId":"1293791850","osmType":"node","osmUrl":"https://www.openstreetmap.org/node/1293791850","osmVersion":3,"osmTimestamp":"2013-08-23T19:40:54Z","seamarkType":"light_minor","aidClass":"light","category":"navigation-aid","tags":{"seamark:light:character":"Fl","seamark:light:colour":"yellow","seamark:light:height":"6","seamark:light:period":"5","seamark:light:range":"5","seamark:light:reference":"D 7342","seamark:name":"Sha'am","seamark:type":"light_minor","source":"US NGA Pub. 112. 2009-11-12."},"name":"Sha'am"}},{"type":"Feature","id":"node/1293791860","geometry":{"type":"Point","coordinates":[56.0077101,25.8900462]},"properties":{"osmId":"1293791860","osmType":"node","osmUrl":"https://www.openstreetmap.org/node/1293791860","osmVersion":2,"osmTimestamp":"2015-03-11T09:17:14Z","seamarkType":"light_minor","aidClass":"light","category":"navigation-aid","tags":{"seamark:light:character":"Fl","seamark:light:colour":"red","seamark:light:group":"3","seamark:light:height":"6","seamark:light:period":"15","seamark:light:range":"5","seamark:light:reference":"D 7346","seamark:name":"Rams","seamark:type":"light_minor","source":"US NGA Pub. 112. 2009-11-12."},"name":"Rams"}},{"type":"Feature","id":"node/1293791913","geometry":{"type":"Point","coordinates":[55.2983478,26.2698448]},"properties":{"osmId":"1293791913","osmType":"node","osmUrl":"https://www.openstreetmap.org/node/1293791913","osmVersion":3,"osmTimestamp":"2013-05-05T18:42:50Z","seamarkType":"landmark","aidClass":"landmark","category":"navigation-aid","tags":{"seamark:information":"Obscured 077°-080° by peak on Jazireh-ye-Tonb-e Kuchek.","seamark:landmark:height":"82","seamark:light:1:character":"Fl","seamark:light:1:colour":"white","seamark:light:1:height":"75","seamark:light:1:period":"10","seamark:light:1:range":"18","seamark:light:1:sector_end":"77","seamark:light:1:sector_start":"80","seamark:light:1:sequence":"0.3+(9.7)","seamark:light:reference":"D 7703","seamark:name":"Jazireh-ye Tonb-e Bozorg.","seamark:radar_transponder:category":"racon","seamark:radar_transponder:group":"O","seamark:type":"landmark","source":"US NGA Pub. 112. 2009-11-12."},"name":"Jazireh-ye Tonb-e Bozorg."}},{"type":"Feature","id":"node/1293791937","geometry":{"type":"Point","coordinates":[55.2616313,26.6571934]},"properties":{"osmId":"1293791937","osmType":"node","osmUrl":"https://www.openstreetmap.org/node/1293791937","osmVersion":3,"osmTimestamp":"2014-08-23T06:26:02Z","seamarkType":"light_minor","aidClass":"light","category":"navigation-aid","tags":{"seamark:light:character":"Fl","seamark:light:colour":"white","seamark:light:group":"2","seamark:light:period":"10","seamark:light:reference":"D 7701","seamark:name":"Basa i du","seamark:type":"light_minor","source":"US NGA Pub. 112. 2009-11-12."},"name":"Basa i du"}},{"type":"Feature","id":"node/1293791949","geometry":{"type":"Point","coordinates":[55.2933742,26.5370421]},"properties":{"osmId":"1293791949","osmType":"node","osmUrl":"https://www.openstreetmap.org/node/1293791949","osmVersion":3,"osmTimestamp":"2014-08-23T06:26:02Z","seamarkType":"light_minor","aidClass":"light","category":"navigation-aid","tags":{"seamark:light:character":"Fl","seamark:light:colour":"white","seamark:light:group":"3","seamark:light:height":"12","seamark:light:period":"12","seamark:light:range":"7","seamark:light:reference":"D 7700","seamark:name":"Ras Dastakan","seamark:type":"light_minor","source":"US NGA Pub. 112. 2009-11-12."},"name":"Ras Dastakan"}},{"type":"Feature","id":"node/1293791961","geometry":{"type":"Point","coordinates":[55.152339,26.240534]},"properties":{"osmId":"1293791961","osmType":"node","osmUrl":"https://www.openstreetmap.org/node/1293791961","osmVersion":2,"osmTimestamp":"2013-05-05T18:42:50Z","seamarkType":"light_major","aidClass":"light","category":"navigation-aid","tags":{"seamark:light:character":"Fl","seamark:light:colour":"white","seamark:light:height":"25","seamark:light:period":"10","seamark:light:range":"12","seamark:light:reference":"D 7704","seamark:name":"Jazireh-ye Tonb-e Kuchek.","seamark:type":"light_major","source":"US NGA Pub. 112. 2009-11-12."},"name":"Jazireh-ye Tonb-e Kuchek."}},{"type":"Feature","id":"node/1293791969","geometry":{"type":"Point","coordinates":[55.0165396,25.9830511]},"properties":{"osmId":"1293791969","osmType":"node","osmUrl":"https://www.openstreetmap.org/node/1293791969","osmVersion":4,"osmTimestamp":"2013-05-05T18:42:50Z","seamarkType":"light_float","aidClass":"light","category":"navigation-aid","tags":{"seamark:information":"Radar reflector.","seamark:light:character":"Fl","seamark:light:colour":"white","seamark:light:period":"12","seamark:light:range":"12","seamark:light:reference":"D 7705.6","seamark:name":"Abu Musa Light float.","seamark:radar_reflector":"yes","seamark:type":"light_float","source":"US NGA Pub. 112. 2009-11-12."},"name":"Abu Musa Light float."}},{"type":"Feature","id":"node/1293791984","geometry":{"type":"Point","coordinates":[55.0344333,25.8851894]},"properties":{"osmId":"1293791984","osmType":"node","osmUrl":"https://www.openstreetmap.org/node/1293791984","osmVersion":5,"osmTimestamp":"2024-08-02T16:37:44Z","seamarkType":"light_major","aidClass":"light","category":"navigation-aid","tags":{"man_made":"mast","seamark:light:character":"Fl","seamark:light:colour":"white","seamark:light:height":"130","seamark:light:period":"8","seamark:light:range":"9","seamark:light:reference":"D 7706","seamark:name":"Jazirat Abu Musa.","seamark:type":"light_major","source":"US NGA Pub. 112. 2009-11-12."},"name":"Jazirat Abu Musa."}},{"type":"Feature","id":"node/1293793668","geometry":{"type":"Point","coordinates":[55.0385177,25.0205164]},"properties":{"osmId":"1293793668","osmType":"node","osmUrl":"https://www.openstreetmap.org/node/1293793668","osmVersion":4,"osmTimestamp":"2022-06-23T06:34:09Z","seamarkType":"light_minor","aidClass":"light","category":"navigation-aid","tags":{"seamark:light:character":"Fl","seamark:light:colour":"green","seamark:light:height":"14","seamark:light:period":"5","seamark:light:range":"8","seamark:light:reference":"D 7360.4","seamark:light:sequence":"0.5+(4.5)","seamark:type":"light_minor","source":"US NGA Pub. 112. 2009-11-12."}}},{"type":"Feature","id":"node/1293793673","geometry":{"type":"Point","coordinates":[55.073968,25.0175536]},"properties":{"osmId":"1293793673","osmType":"node","osmUrl":"https://www.openstreetmap.org/node/1293793673","osmVersion":4,"osmTimestamp":"2015-02-12T10:15:46Z","seamarkType":"light_minor","aidClass":"light","category":"navigation-aid","tags":{"seamark:information":"R. lights on power station chimneys 3.2M and 3.7M NE.","seamark:light:category":"aero","seamark:light:character":"Oc","seamark:light:colour":"red","seamark:light:height":"58","seamark:light:period":"3","seamark:light:range":"20","seamark:light:reference":"D 7360.2","seamark:type":"light_minor","source":"US NGA Pub. 112. 2009-11-12."}}},{"type":"Feature","id":"node/1293793674","geometry":{"type":"Point","coordinates":[55.0754486,25.020792]},"properties":{"osmId":"1293793674","osmType":"node","osmUrl":"https://www.openstreetmap.org/node/1293793674","osmVersion":3,"osmTimestamp":"2015-02-12T10:22:51Z","seamarkType":"light_minor","aidClass":"light","category":"navigation-aid","tags":{"seamark:light:category":"aero","seamark:light:character":"Oc","seamark:light:colour":"red","seamark:light:height":"58","seamark:light:period":"3","seamark:light:range":"20","seamark:light:reference":"D 7360.22","seamark:type":"light_minor","source":"US NGA Pub. 112. 2009-11-12."}}},{"type":"Feature","id":"node/1293793675","geometry":{"type":"Point","coordinates":[55.0814591,25.0325995]},"properties":{"osmId":"1293793675","osmType":"node","osmUrl":"https://www.openstreetmap.org/node/1293793675","osmVersion":4,"osmTimestamp":"2019-07-29T19:51:43Z","seamarkType":"light_minor","aidClass":"light","category":"navigation-aid","tags":{"seamark:light:character":"Fl","seamark:light:colour":"green","seamark:light:group":"2","seamark:light:height":"6","seamark:light:period":"10","seamark:light:range":"5","seamark:light:reference":"D 7360.6","seamark:light:sequence":"1+(1)+1+(7)","seamark:type":"light_minor","source":"US NGA Pub. 112. 2009-11-12."}}},{"type":"Feature","id":"node/1293793676","geometry":{"type":"Point","coordinates":[55.082545,25.0319929]},"properties":{"osmId":"1293793676","osmType":"node","osmUrl":"https://www.openstreetmap.org/node/1293793676","osmVersion":3,"osmTimestamp":"2015-02-12T10:22:51Z","seamarkType":"beacon_special_purpose","aidClass":"beacon","category":"navigation-aid","tags":{"seamark:beacon_special_purpose:colour":"yellow","seamark:light:character":"Fl","seamark:light:colour":"yellow","seamark:light:height":"6","seamark:light:period":"5","seamark:light:range":"7","seamark:light:reference":"D 7360.65","seamark:type":"beacon_special_purpose","source":"US NGA Pub. 112. 2009-11-12."},"colour":"yellow"}},{"type":"Feature","id":"node/1293793677","geometry":{"type":"Point","coordinates":[55.1221421,25.0685857]},"properties":{"osmId":"1293793677","osmType":"node","osmUrl":"https://www.openstreetmap.org/node/1293793677","osmVersion":4,"osmTimestamp":"2015-08-28T15:02:03Z","seamarkType":"light_minor","aidClass":"light","category":"navigation-aid","tags":{"seamark:light:character":"Fl","seamark:light:colour":"green","seamark:light:group":"5","seamark:light:height":"7","seamark:light:period":"20","seamark:light:range":"5","seamark:light:reference":"D 7358.21","seamark:type":"light_minor","source":"US NGA Pub. 112. 2009-11-12."}}},{"type":"Feature","id":"node/1293793680","geometry":{"type":"Point","coordinates":[55.1974041,25.1550316]},"properties":{"osmId":"1293793680","osmType":"node","osmUrl":"https://www.openstreetmap.org/node/1293793680","osmVersion":6,"osmTimestamp":"2020-05-21T20:48:51Z","seamarkType":"beacon_lateral","aidClass":"beacon","category":"navigation-aid","tags":{"seamark:beacon_lateral:category":"starboard","seamark:beacon_lateral:colour":"green","seamark:beacon_lateral:system":"iala-a","seamark:information":"Spur marked by Fl.(3)G. 20s.","seamark:light:character":"Fl","seamark:light:colour":"green","seamark:light:group":"3","seamark:light:period":"20","seamark:light:reference":"D 7357.4","seamark:name":"Maz Gam","seamark:type":"beacon_lateral","source":"US NGA Pub. 112. 2009-11-12."},"name":"Maz Gam","colour":"green"}},{"type":"Feature","id":"node/1293793681","geometry":{"type":"Point","coordinates":[55.2150233,25.1764245]},"properties":{"osmId":"1293793681","osmType":"node","osmUrl":"https://www.openstreetmap.org/node/1293793681","osmVersion":3,"osmTimestamp":"2015-02-12T10:22:51Z","seamarkType":"light_minor","aidClass":"light","category":"navigation-aid","tags":{"seamark:light:character":"Fl","seamark:light:colour":"green","seamark:light:period":"5","seamark:light:reference":"D 7357.3","seamark:name":"Umm Sagain","seamark:type":"light_minor","source":"US NGA Pub. 112. 2009-11-12."},"name":"Umm Sagain"}},{"type":"Feature","id":"node/1293793682","geometry":{"type":"Point","coordinates":[55.2373089,25.204843]},"properties":{"osmId":"1293793682","osmType":"node","osmUrl":"https://www.openstreetmap.org/node/1293793682","osmVersion":5,"osmTimestamp":"2015-02-12T10:12:29Z","seamarkType":"beacon_lateral","aidClass":"beacon","category":"navigation-aid","tags":{"seamark:beacon_lateral:category":"starboard","seamark:beacon_lateral:colour":"green","seamark:beacon_lateral:system":"iala-a","seamark:light:character":"Q","seamark:light:colour":"green","seamark:light:reference":"D 7357.2","seamark:name":"Al Rais","seamark:topmark:colour":"green","seamark:topmark:shape":"cone, point up","seamark:type":"beacon_lateral","source":"US NGA Pub. 112. 2009-11-12."},"name":"Al Rais","colour":"green"}},{"type":"Feature","id":"node/1293793686","geometry":{"type":"Point","coordinates":[55.2441823,25.2131538]},"properties":{"osmId":"1293793686","osmType":"node","osmUrl":"https://www.openstreetmap.org/node/1293793686","osmVersion":5,"osmTimestamp":"2015-02-12T10:12:30Z","seamarkType":"beacon_lateral","aidClass":"beacon","category":"navigation-aid","tags":{"seamark:beacon_lateral:category":"starboard","seamark:beacon_lateral:colour":"green","seamark:beacon_lateral:system":"iala-a","seamark:information":"Spur marked by Fl.G. 10s.","seamark:light:character":"Fl","seamark:light:colour":"green","seamark:light:period":"10","seamark:light:reference":"D 7357","seamark:name":"Jumerah","seamark:type":"beacon_lateral","source":"US NGA Pub. 112. 2009-11-12."},"name":"Jumerah","colour":"green"}},{"type":"Feature","id":"node/1293793687","geometry":{"type":"Point","coordinates":[55.459068,25.4431902]},"properties":{"osmId":"1293793687","osmType":"node","osmUrl":"https://www.openstreetmap.org/node/1293793687","osmVersion":3,"osmTimestamp":"2014-08-23T06:24:24Z","seamarkType":"light_minor","aidClass":"light","category":"navigation-aid","tags":{"seamark:light:character":"Fl","seamark:light:colour":"red","seamark:light:height":"4","seamark:light:period":"5","seamark:light:range":"3","seamark:light:reference":"D 7353","seamark:type":"light_minor","source":"US NGA Pub. 112. 2009-11-12."}}},{"type":"Feature","id":"node/1293793689","geometry":{"type":"Point","coordinates":[55.4120799,25.3911925]},"properties":{"osmId":"1293793689","osmType":"node","osmUrl":"https://www.openstreetmap.org/node/1293793689","osmVersion":3,"osmTimestamp":"2015-08-28T15:02:04Z","seamarkType":"light_minor","aidClass":"light","category":"navigation-aid","tags":{"seamark:light:character":"Fl","seamark:light:colour":"green","seamark:light:height":"5","seamark:light:period":"5","seamark:light:reference":"D 7353.5","seamark:light:sequence":"1.5+(3.5)","seamark:name":"Al Hayrah","seamark:type":"light_minor","source":"US NGA Pub. 112. 2009-11-12."},"name":"Al Hayrah"}},{"type":"Feature","id":"node/1293793690","geometry":{"type":"Point","coordinates":[55.4123429,25.3902009]},"properties":{"osmId":"1293793690","osmType":"node","osmUrl":"https://www.openstreetmap.org/node/1293793690","osmVersion":3,"osmTimestamp":"2015-08-28T15:02:04Z","seamarkType":"light_minor","aidClass":"light","category":"navigation-aid","tags":{"seamark:light:character":"Fl","seamark:light:colour":"red","seamark:light:height":"5","seamark:light:period":"5","seamark:light:reference":"D 7353.6","seamark:light:sequence":"1.5+(3.5)","seamark:type":"light_minor","source":"US NGA Pub. 112. 2009-11-12."}}},{"type":"Feature","id":"node/1293793691","geometry":{"type":"Point","coordinates":[55.1666667,25.3083167]},"properties":{"osmId":"1293793691","osmType":"node","osmUrl":"https://www.openstreetmap.org/node/1293793691","osmVersion":3,"osmTimestamp":"2015-03-11T09:37:36Z","seamarkType":"buoy_safe_water","aidClass":"buoy","category":"buoy","tags":{"seamark:buoy_safe_water:colour":"red;white","seamark:buoy_safe_water:colour_pattern":"vertical","seamark:buoy_safe_water:shape":"pillar","seamark:light:character":"LFl","seamark:light:colour":"white","seamark:light:period":"10","seamark:radar_transponder:category":"racon","seamark:radar_transponder:group":"T","seamark:topmark:shape":"sphere","seamark:type":"buoy_safe_water","source":"US NGA Pub. 112. 2009-11-12."},"colour":"red;white"}},{"type":"Feature","id":"node/1293793692","geometry":{"type":"Point","coordinates":[55.2673162,25.2742742]},"properties":{"osmId":"1293793692","osmType":"node","osmUrl":"https://www.openstreetmap.org/node/1293793692","osmVersion":4,"osmTimestamp":"2015-08-28T15:02:04Z","seamarkType":"light_minor","aidClass":"light","category":"navigation-aid","tags":{"seamark:light:category":"lower","seamark:light:character":"Q","seamark:light:colour":"white","seamark:light:height":"5","seamark:light:range":"5","seamark:light:reference":"D 7355.6","seamark:name":"Mina Rashid","seamark:type":"light_minor","source":"US NGA Pub. 112. 2009-11-12."},"name":"Mina Rashid"}},{"type":"Feature","id":"node/1293793695","geometry":{"type":"Point","coordinates":[55.2693149,25.2795551]},"properties":{"osmId":"1293793695","osmType":"node","osmUrl":"https://www.openstreetmap.org/node/1293793695","osmVersion":4,"osmTimestamp":"2015-02-12T10:15:47Z","seamarkType":"light_minor","aidClass":"light","category":"navigation-aid","tags":{"seamark:information":"4 F.Y. 8m 3M mark E. breakwater, F.R. 0.85 mile SSE. moved as required.","seamark:light:character":"VQ","seamark:light:colour":"red","seamark:light:height":"8","seamark:light:range":"3","seamark:light:reference":"D 7355.8","seamark:type":"light_minor","source":"US NGA Pub. 112. 2009-11-12."}}},{"type":"Feature","id":"node/1293793697","geometry":{"type":"Point","coordinates":[55.270817,25.2631167]},"properties":{"osmId":"1293793697","osmType":"node","osmUrl":"https://www.openstreetmap.org/node/1293793697","osmVersion":2,"osmTimestamp":"2015-03-11T09:37:36Z","seamarkType":"light_minor","aidClass":"light","category":"navigation-aid","tags":{"seamark:light:character":"Fl","seamark:light:colour":"white","seamark:light:height":"3","seamark:light:period":"3","seamark:light:range":"1","seamark:light:reference":"D 7355.94","seamark:type":"light_minor","source":"US NGA Pub. 112. 2009-11-12."}}},{"type":"Feature","id":"node/1293793698","geometry":{"type":"Point","coordinates":[55.260384,25.2478462]},"properties":{"osmId":"1293793698","osmType":"node","osmUrl":"https://www.openstreetmap.org/node/1293793698","osmVersion":4,"osmTimestamp":"2015-02-12T10:15:47Z","seamarkType":"light_minor","aidClass":"light","category":"navigation-aid","tags":{"seamark:information":"F.R. 5m 3M dolphin marks SE end.","seamark:light:character":"F","seamark:light:colour":"red","seamark:light:height":"5","seamark:light:range":"3","seamark:light:reference":"D 7356.3","seamark:type":"light_minor","source":"US NGA Pub. 112. 2009-11-12."}}},{"type":"Feature","id":"node/1293793699","geometry":{"type":"Point","coordinates":[55.2688528,25.2551842]},"properties":{"osmId":"1293793699","osmType":"node","osmUrl":"https://www.openstreetmap.org/node/1293793699","osmVersion":3,"osmTimestamp":"2015-02-12T10:22:52Z","seamarkType":"light_minor","aidClass":"light","category":"navigation-aid","tags":{"seamark:light:character":"F","seamark:light:colour":"red","seamark:light:height":"6","seamark:light:range":"3","seamark:light:reference":"D 7356.5","seamark:type":"light_minor","source":"US NGA Pub. 112. 2009-11-12."}}},{"type":"Feature","id":"node/1293793700","geometry":{"type":"Point","coordinates":[55.2917,25.2811337]},"properties":{"osmId":"1293793700","osmType":"node","osmUrl":"https://www.openstreetmap.org/node/1293793700","osmVersion":2,"osmTimestamp":"2015-03-11T09:37:36Z","seamarkType":"light_minor","aidClass":"light","category":"navigation-aid","tags":{"seamark:light:character":"Fl","seamark:light:colour":"white","seamark:light:height":"5","seamark:light:period":"3","seamark:light:range":"10","seamark:light:reference":"D 7355.2","seamark:name":"Khaver Dubayy","seamark:type":"light_minor","source":"US NGA Pub. 112. 2009-11-12."},"name":"Khaver Dubayy"}},{"type":"Feature","id":"node/1293793702","geometry":{"type":"Point","coordinates":[55.2950503,25.2758813]},"properties":{"osmId":"1293793702","osmType":"node","osmUrl":"https://www.openstreetmap.org/node/1293793702","osmVersion":3,"osmTimestamp":"2015-02-12T10:22:52Z","seamarkType":"light_minor","aidClass":"light","category":"navigation-aid","tags":{"seamark:light:character":"Fl","seamark:light:colour":"red","seamark:light:height":"3","seamark:light:period":"5","seamark:light:range":"3","seamark:light:reference":"D 7355.32","seamark:type":"light_minor","source":"US NGA Pub. 112. 2009-11-12."}}},{"type":"Feature","id":"node/1293793703","geometry":{"type":"Point","coordinates":[55.2940333,25.26465]},"properties":{"osmId":"1293793703","osmType":"node","osmUrl":"https://www.openstreetmap.org/node/1293793703","osmVersion":4,"osmTimestamp":"2015-03-11T09:37:36Z","seamarkType":"light_minor","aidClass":"light","category":"navigation-aid","tags":{"seamark:information":"Occasional.","seamark:light:1:category":"vertical","seamark:light:1:character":"F","seamark:light:1:colour":"white","seamark:light:2:category":"vertical","seamark:light:2:character":"F","seamark:light:2:colour":"red","seamark:light:reference":"D 7355.4","seamark:type":"light_minor","source":"US NGA Pub. 112. 2009-11-12."}}},{"type":"Feature","id":"node/1293793706","geometry":{"type":"Point","coordinates":[55.3295629,25.3004431]},"properties":{"osmId":"1293793706","osmType":"node","osmUrl":"https://www.openstreetmap.org/node/1293793706","osmVersion":2,"osmTimestamp":"2015-03-11T09:37:36Z","seamarkType":"light_minor","aidClass":"light","category":"navigation-aid","tags":{"seamark:light:character":"Fl","seamark:light:colour":"white","seamark:light:height":"3","seamark:light:period":"5","seamark:light:range":"2","seamark:light:reference":"D 7354.9","seamark:name":"Al Hamiryah","seamark:type":"light_minor","source":"US NGA Pub. 112. 2009-11-12."},"name":"Al Hamiryah"}},{"type":"Feature","id":"node/1293793707","geometry":{"type":"Point","coordinates":[55.3305431,25.2994496]},"properties":{"osmId":"1293793707","osmType":"node","osmUrl":"https://www.openstreetmap.org/node/1293793707","osmVersion":2,"osmTimestamp":"2015-03-11T09:37:37Z","seamarkType":"light_minor","aidClass":"light","category":"navigation-aid","tags":{"seamark:light:character":"Fl","seamark:light:colour":"red","seamark:light:height":"3","seamark:light:period":"3","seamark:light:range":"1","seamark:light:reference":"D 7354.92","seamark:type":"light_minor","source":"US NGA Pub. 112. 2009-11-12."}}},{"type":"Feature","id":"node/1293793714","geometry":{"type":"Point","coordinates":[56.0466085,25.9818279]},"properties":{"osmId":"1293793714","osmType":"node","osmUrl":"https://www.openstreetmap.org/node/1293793714","osmVersion":5,"osmTimestamp":"2015-08-28T15:02:04Z","seamarkType":"light_minor","aidClass":"light","category":"navigation-aid","tags":{"seamark:light:character":"Fl","seamark:light:colour":"white","seamark:light:group":"2","seamark:light:period":"10","seamark:light:range":"9","seamark:light:reference":"D 7345","seamark:name":"Mina Saqr Harbor","seamark:type":"light_minor","source":"US NGA Pub. 112. 2009-11-12."},"name":"Mina Saqr Harbor"}},{"type":"Feature","id":"node/1293793715","geometry":{"type":"Point","coordinates":[56.0490292,25.9730642]},"properties":{"osmId":"1293793715","osmType":"node","osmUrl":"https://www.openstreetmap.org/node/1293793715","osmVersion":6,"osmTimestamp":"2019-02-17T17:39:44Z","seamarkType":"light_major","aidClass":"light","category":"navigation-aid","tags":{"seamark:information":"G. 171°-173°30´, W.-177°30´, R.-180°.","seamark:light:1:character":"Oc","seamark:light:1:colour":"green","seamark:light:1:height":"21","seamark:light:1:period":"3","seamark:light:1:range":"11","seamark:light:1:sector_end":"173.5","seamark:light:1:sector_start":"171","seamark:light:2:character":"Oc","seamark:light:2:colour":"white","seamark:light:2:height":"21","seamark:light:2:period":"3","seamark:light:2:range":"12","seamark:light:2:sector_end":"177.5","seamark:light:2:sector_start":"173.5","seamark:light:3:character":"Oc","seamark:light:3:colour":"red","seamark:light:3:height":"21","seamark:light:3:period":"3","seamark:light:3:range":"10","seamark:light:3:sector_end":"180","seamark:light:3:sector_start":"177.5","seamark:light:reference":"D 7345.5","seamark:name":"Entrance.","seamark:type":"light_major","source":"US NGA Pub. 112. 2009-11-12."},"name":"Entrance."}},{"type":"Feature","id":"node/1293793716","geometry":{"type":"Point","coordinates":[56.0497149,25.9800431]},"properties":{"osmId":"1293793716","osmType":"node","osmUrl":"https://www.openstreetmap.org/node/1293793716","osmVersion":4,"osmTimestamp":"2015-08-28T15:02:05Z","seamarkType":"light_minor","aidClass":"light","category":"navigation-aid","tags":{"seamark:light:character":"Fl","seamark:light:colour":"red","seamark:light:group":"2","seamark:light:period":"10","seamark:light:range":"8","seamark:light:reference":"D 7345.2","seamark:type":"light_minor","source":"US NGA Pub. 112. 2009-11-12."}}},{"type":"Feature","id":"node/1293793717","geometry":{"type":"Point","coordinates":[56.0471847,25.97947]},"properties":{"osmId":"1293793717","osmType":"node","osmUrl":"https://www.openstreetmap.org/node/1293793717","osmVersion":4,"osmTimestamp":"2013-08-24T07:35:32Z","seamarkType":"light_minor","aidClass":"light","category":"navigation-aid","tags":{"seamark:light:1:character":"Fl","seamark:light:1:colour":"green","seamark:light:1:period":"3","seamark:light:1:sector_end":"17","seamark:light:1:sector_start":"165","seamark:light:reference":"D 7345.05","seamark:type":"light_minor","source":"US NGA Pub. 112. 2009-11-12."}}},{"type":"Feature","id":"node/1293793719","geometry":{"type":"Point","coordinates":[56.2148678,26.2553745]},"properties":{"osmId":"1293793719","osmType":"node","osmUrl":"https://www.openstreetmap.org/node/1293793719","osmVersion":3,"osmTimestamp":"2013-05-09T10:55:09Z","seamarkType":"light_major","aidClass":"light","category":"navigation-aid","tags":{"seamark:information":"Visible 065°-297°.","seamark:light:1:character":"Fl","seamark:light:1:colour":"white","seamark:light:1:height":"19","seamark:light:1:period":"5","seamark:light:1:range":"10","seamark:light:1:sector_end":"297","seamark:light:1:sector_start":"65","seamark:light:reference":"D 7336","seamark:name":"Ra's Shaykh Mas‘ud.","seamark:type":"light_major","source":"US NGA Pub. 112. 2009-11-12."},"name":"Ra's Shaykh Mas‘ud."}},{"type":"Feature","id":"node/1293793720","geometry":{"type":"Point","coordinates":[56.2503259,26.2108202]},"properties":{"osmId":"1293793720","osmType":"node","osmUrl":"https://www.openstreetmap.org/node/1293793720","osmVersion":4,"osmTimestamp":"2015-08-28T15:02:05Z","seamarkType":"light_minor","aidClass":"light","category":"navigation-aid","tags":{"seamark:information":"F.W. 2M marks groin close S.","seamark:light:character":"Fl","seamark:light:colour":"green","seamark:light:height":"8","seamark:light:period":"5","seamark:light:range":"5","seamark:light:reference":"D 7336.2","seamark:name":"Khasab","seamark:type":"light_minor","source":"US NGA Pub. 112. 2009-11-12."},"name":"Khasab"}},{"type":"Feature","id":"node/2291406012","geometry":{"type":"Point","coordinates":[55.4027833,25.5771167]},"properties":{"osmId":"2291406012","osmType":"node","osmUrl":"https://www.openstreetmap.org/node/2291406012","osmVersion":2,"osmTimestamp":"2024-08-02T16:37:44Z","seamarkType":"buoy_installation","aidClass":"buoy","category":"buoy","tags":{"seamark:buoy_installation:category":"sbm","seamark:light:character":"Mo","seamark:light:colour":"white","seamark:light:group":"U","seamark:light:period":"15","seamark:light:range":"6","seamark:light:reference":"D 7351","seamark:name":"Amoco Sharjah Oil Terminal","seamark:radar_transponder:category":"racon","seamark:radar_transponder:group":"Z","seamark:radar_transponder:period":"48","seamark:type":"buoy_installation","source":"US NGA Pub. 112. 2009-11-12."},"name":"Amoco Sharjah Oil Terminal"}},{"type":"Feature","id":"node/2291406588","geometry":{"type":"Point","coordinates":[55.1961577,25.8277001]},"properties":{"osmId":"2291406588","osmType":"node","osmUrl":"https://www.openstreetmap.org/node/2291406588","osmVersion":2,"osmTimestamp":"2013-05-05T18:42:50Z","seamarkType":"buoy_lateral","aidClass":"buoy","category":"buoy","tags":{"seamark:buoy_lateral:category":"starboard","seamark:buoy_lateral:colour":"green","seamark:buoy_lateral:shape":"conical","seamark:buoy_lateral:system":"iala-a","seamark:light:character":"Fl","seamark:light:colour":"green","seamark:light:period":"3","seamark:topmark:colour":"green","seamark:topmark:shape":"cone, point up","seamark:type":"buoy_lateral"},"colour":"green"}},{"type":"Feature","id":"node/2291407023","geometry":{"type":"Point","coordinates":[55.9374371,25.9754279]},"properties":{"osmId":"2291407023","osmType":"node","osmUrl":"https://www.openstreetmap.org/node/2291407023","osmVersion":2,"osmTimestamp":"2013-05-09T10:55:09Z","seamarkType":"buoy_special_purpose","aidClass":"buoy","category":"buoy","tags":{"seamark:buoy_special_purpose:category":"mooring","seamark:buoy_special_purpose:shape":"super-buoy","seamark:name":"Hulaylah Oil Terminal","seamark:type":"buoy_special_purpose"},"name":"Hulaylah Oil Terminal"}},{"type":"Feature","id":"node/2292852034","geometry":{"type":"Point","coordinates":[55.01895,25.8517667]},"properties":{"osmId":"2292852034","osmType":"node","osmUrl":"https://www.openstreetmap.org/node/2292852034","osmVersion":2,"osmTimestamp":"2024-08-02T16:37:44Z","seamarkType":"buoy_cardinal","aidClass":"buoy","category":"buoy","tags":{"seamark:buoy_cardinal:category":"south","seamark:buoy_cardinal:colour":"yellow;black","seamark:buoy_cardinal:colour_pattern":"horizontal","seamark:buoy_cardinal:shape":"pillar","seamark:light:character":"Q+LFl","seamark:light:colour":"white","seamark:light:group":"6","seamark:light:period":"15","seamark:topmark:colour":"black","seamark:topmark:shape":"2 cones down","seamark:type":"buoy_cardinal"},"colour":"yellow;black"}},{"type":"Feature","id":"node/2292852052","geometry":{"type":"Point","coordinates":[55.0083667,25.8668333]},"properties":{"osmId":"2292852052","osmType":"node","osmUrl":"https://www.openstreetmap.org/node/2292852052","osmVersion":2,"osmTimestamp":"2024-08-02T16:37:44Z","seamarkType":"buoy_cardinal","aidClass":"buoy","category":"buoy","tags":{"seamark:buoy_cardinal:category":"west","seamark:buoy_cardinal:colour":"yellow;black;yellow","seamark:buoy_cardinal:colour_pattern":"horizontal","seamark:buoy_cardinal:shape":"pillar","seamark:light:character":"Q","seamark:light:colour":"white","seamark:light:group":"9","seamark:light:period":"15","seamark:topmark:colour":"black","seamark:topmark:shape":"2 cones point together","seamark:type":"buoy_cardinal"},"colour":"yellow;black;yellow"}},{"type":"Feature","id":"node/2292852066","geometry":{"type":"Point","coordinates":[55.5669394,26.0689393]},"properties":{"osmId":"2292852066","osmType":"node","osmUrl":"https://www.openstreetmap.org/node/2292852066","osmVersion":1,"osmTimestamp":"2013-05-05T18:42:49Z","seamarkType":"buoy_cardinal","aidClass":"buoy","category":"buoy","tags":{"seamark:buoy_cardinal:category":"north","seamark:buoy_cardinal:colour":"black;yellow","seamark:buoy_cardinal:colour_pattern":"horizontal","seamark:buoy_cardinal:shape":"pillar","seamark:light:character":"Q","seamark:light:colour":"white","seamark:topmark:colour":"black","seamark:topmark:shape":"2 cones up","seamark:type":"buoy_cardinal"},"colour":"black;yellow"}},{"type":"Feature","id":"node/2292852077","geometry":{"type":"Point","coordinates":[55.3013115,26.1599875]},"properties":{"osmId":"2292852077","osmType":"node","osmUrl":"https://www.openstreetmap.org/node/2292852077","osmVersion":1,"osmTimestamp":"2013-05-05T18:42:49Z","seamarkType":"buoy_cardinal","aidClass":"buoy","category":"buoy","tags":{"seamark:buoy_cardinal:category":"south","seamark:buoy_cardinal:colour":"yellow;black","seamark:buoy_cardinal:colour_pattern":"horizontal","seamark:buoy_cardinal:shape":"pillar","seamark:light:character":"Q+LFl","seamark:light:colour":"white","seamark:light:group":"6","seamark:light:period":"10","seamark:topmark:colour":"black","seamark:topmark:shape":"2 cones down","seamark:type":"buoy_cardinal"},"colour":"yellow;black"}},{"type":"Feature","id":"node/2292852093","geometry":{"type":"Point","coordinates":[55.3448673,26.1789259]},"properties":{"osmId":"2292852093","osmType":"node","osmUrl":"https://www.openstreetmap.org/node/2292852093","osmVersion":1,"osmTimestamp":"2013-05-05T18:42:49Z","seamarkType":"buoy_cardinal","aidClass":"buoy","category":"buoy","tags":{"seamark:buoy_cardinal:category":"south","seamark:buoy_cardinal:colour":"yellow;black","seamark:buoy_cardinal:colour_pattern":"horizontal","seamark:buoy_cardinal:shape":"pillar","seamark:light:character":"Q+LFl","seamark:light:colour":"white","seamark:light:group":"6","seamark:light:period":"15","seamark:topmark:colour":"black","seamark:topmark:shape":"2 cones down","seamark:type":"buoy_cardinal"},"colour":"yellow;black"}},{"type":"Feature","id":"node/2292852106","geometry":{"type":"Point","coordinates":[55.2087494,26.3439997]},"properties":{"osmId":"2292852106","osmType":"node","osmUrl":"https://www.openstreetmap.org/node/2292852106","osmVersion":1,"osmTimestamp":"2013-05-05T18:42:49Z","seamarkType":"buoy_cardinal","aidClass":"buoy","category":"buoy","tags":{"seamark:buoy_cardinal:category":"south","seamark:buoy_cardinal:colour":"yellow;black","seamark:buoy_cardinal:colour_pattern":"horizontal","seamark:buoy_cardinal:shape":"pillar","seamark:light:character":"Q+LFl","seamark:light:colour":"white","seamark:light:group":"6","seamark:light:period":"15","seamark:topmark:colour":"black","seamark:topmark:shape":"2 cones down","seamark:type":"buoy_cardinal"},"colour":"yellow;black"}},{"type":"Feature","id":"node/2295842739","geometry":{"type":"Point","coordinates":[56.41265,26.3941833]},"properties":{"osmId":"2295842739","osmType":"node","osmUrl":"https://www.openstreetmap.org/node/2295842739","osmVersion":2,"osmTimestamp":"2024-08-01T17:21:38Z","seamarkType":"beacon_isolated_danger","aidClass":"beacon","category":"navigation-aid","tags":{"seamark:beacon_isolated_danger:colour":"black;red;black","seamark:beacon_isolated_danger:colour_pattern":"horizontal","seamark:light:character":"Fl","seamark:light:colour":"white","seamark:light:group":"2","seamark:light:height":"3","seamark:light:period":"5","seamark:light:range":"5","seamark:light:reference":"D 7335.5","seamark:name":"Keshal rock","seamark:topmark:colour":"black","seamark:topmark:shape":"2 spheres","seamark:type":"beacon_isolated_danger"},"name":"Keshal rock","colour":"black;red;black"}},{"type":"Feature","id":"node/2296889294","geometry":{"type":"Point","coordinates":[56.0385223,26.001655]},"properties":{"osmId":"2296889294","osmType":"node","osmUrl":"https://www.openstreetmap.org/node/2296889294","osmVersion":1,"osmTimestamp":"2013-05-09T10:55:07Z","seamarkType":"buoy_safe_water","aidClass":"buoy","category":"buoy","tags":{"seamark:buoy_safe_water:colour":"red;white","seamark:buoy_safe_water:colour_pattern":"vertical","seamark:buoy_safe_water:shape":"spherical","seamark:light:character":"Iso","seamark:light:colour":"white","seamark:light:period":"6","seamark:topmark:colour":"red","seamark:topmark:shape":"sphere","seamark:type":"buoy_safe_water"},"colour":"red;white"}},{"type":"Feature","id":"node/2296889301","geometry":{"type":"Point","coordinates":[55.88485,26.1680333]},"properties":{"osmId":"2296889301","osmType":"node","osmUrl":"https://www.openstreetmap.org/node/2296889301","osmVersion":2,"osmTimestamp":"2024-08-01T17:21:38Z","seamarkType":"buoy_special_purpose","aidClass":"buoy","category":"buoy","tags":{"seamark:buoy_special_purpose:colour":"yellow","seamark:buoy_special_purpose:shape":"spherical","seamark:light:character":"Fl","seamark:light:colour":"yellow","seamark:light:period":"6","seamark:name":"Inchscape","seamark:topmark:colour":"yellow","seamark:topmark:shape":"x-shape","seamark:type":"buoy_special_purpose"},"name":"Inchscape","colour":"yellow"}},{"type":"Feature","id":"node/2296889310","geometry":{"type":"Point","coordinates":[56.2536382,26.2217133]},"properties":{"osmId":"2296889310","osmType":"node","osmUrl":"https://www.openstreetmap.org/node/2296889310","osmVersion":1,"osmTimestamp":"2013-05-09T10:55:07Z","seamarkType":"buoy_safe_water","aidClass":"buoy","category":"buoy","tags":{"seamark:buoy_safe_water:colour":"red;white","seamark:buoy_safe_water:colour_pattern":"vertical","seamark:buoy_safe_water:shape":"pillar","seamark:light:character":"Mo","seamark:light:colour":"white","seamark:light:group":"A","seamark:light:period":"10","seamark:topmark:colour":"red","seamark:topmark:shape":"sphere","seamark:type":"buoy_safe_water"},"colour":"red;white"}},{"type":"Feature","id":"node/4081650613","geometry":{"type":"Point","coordinates":[55.9112048,26.6986874]},"properties":{"osmId":"4081650613","osmType":"node","osmUrl":"https://www.openstreetmap.org/node/4081650613","osmVersion":3,"osmTimestamp":"2021-05-10T06:22:41Z","seamarkType":"light_minor","aidClass":"light","category":"navigation-aid","tags":{"fixme":"please verify","note":"mole head (bing)","seamark:type":"light_minor"}}},{"type":"Feature","id":"node/4081650614","geometry":{"type":"Point","coordinates":[55.9120953,26.6989857]},"properties":{"osmId":"4081650614","osmType":"node","osmUrl":"https://www.openstreetmap.org/node/4081650614","osmVersion":3,"osmTimestamp":"2024-12-05T13:07:36Z","seamarkType":"light_minor","aidClass":"light","category":"navigation-aid","tags":{"amenity":"ferry_terminal","ferry":"yes","fixme":"to be verified","note":"mole head","public_transport":"station","seamark:type":"light_minor"}}},{"type":"Feature","id":"node/5019700456","geometry":{"type":"Point","coordinates":[55.1327441,25.0715205]},"properties":{"osmId":"5019700456","osmType":"node","osmUrl":"https://www.openstreetmap.org/node/5019700456","osmVersion":2,"osmTimestamp":"2017-08-07T19:53:35Z","seamarkType":"light_minor","aidClass":"light","category":"navigation-aid","tags":{"seamark:light:character":"LFl","seamark:light:colour":"red","seamark:light:exhibition":"night","seamark:light:visibility":"part_obscured","seamark:type":"light_minor"}}},{"type":"Feature","id":"node/5019700457","geometry":{"type":"Point","coordinates":[55.1329844,25.0713274]},"properties":{"osmId":"5019700457","osmType":"node","osmUrl":"https://www.openstreetmap.org/node/5019700457","osmVersion":2,"osmTimestamp":"2017-08-07T19:53:35Z","seamarkType":"light_minor","aidClass":"light","category":"navigation-aid","tags":{"seamark:light:character":"LFl","seamark:light:colour":"green","seamark:light:exhibition":"night","seamark:light:visibility":"part_obscured","seamark:type":"light_minor"}}},{"type":"Feature","id":"node/5019700458","geometry":{"type":"Point","coordinates":[55.136676,25.0756915]},"properties":{"osmId":"5019700458","osmType":"node","osmUrl":"https://www.openstreetmap.org/node/5019700458","osmVersion":2,"osmTimestamp":"2017-08-07T19:53:35Z","seamarkType":"light_minor","aidClass":"light","category":"navigation-aid","tags":{"seamark:light:character":"LFl","seamark:light:colour":"red","seamark:light:exhibition":"night","seamark:light:visibility":"part_obscured","seamark:type":"light_minor"}}},{"type":"Feature","id":"node/5019700459","geometry":{"type":"Point","coordinates":[55.1370408,25.0754049]},"properties":{"osmId":"5019700459","osmType":"node","osmUrl":"https://www.openstreetmap.org/node/5019700459","osmVersion":2,"osmTimestamp":"2017-08-07T19:53:35Z","seamarkType":"light_minor","aidClass":"light","category":"navigation-aid","tags":{"seamark:light:character":"LFl","seamark:light:colour":"green","seamark:light:exhibition":"night","seamark:light:visibility":"part_obscured","seamark:type":"light_minor"}}},{"type":"Feature","id":"node/5019700460","geometry":{"type":"Point","coordinates":[55.1407062,25.0799447]},"properties":{"osmId":"5019700460","osmType":"node","osmUrl":"https://www.openstreetmap.org/node/5019700460","osmVersion":4,"osmTimestamp":"2021-03-07T12:16:42Z","seamarkType":"light_minor","aidClass":"light","category":"navigation-aid","tags":{"seamark:light:character":"LFl","seamark:light:colour":"red","seamark:light:exhibition":"night","seamark:light:visibility":"part_obscured","seamark:type":"light_minor"}}},{"type":"Feature","id":"node/5019700461","geometry":{"type":"Point","coordinates":[55.1410363,25.0796871]},"properties":{"osmId":"5019700461","osmType":"node","osmUrl":"https://www.openstreetmap.org/node/5019700461","osmVersion":4,"osmTimestamp":"2021-03-07T12:16:42Z","seamarkType":"light_minor","aidClass":"light","category":"navigation-aid","tags":{"seamark:light:character":"LFl","seamark:light:colour":"green","seamark:light:exhibition":"night","seamark:light:visibility":"part_obscured","seamark:type":"light_minor"}}},{"type":"Feature","id":"node/5019700462","geometry":{"type":"Point","coordinates":[55.1447704,25.0820301]},"properties":{"osmId":"5019700462","osmType":"node","osmUrl":"https://www.openstreetmap.org/node/5019700462","osmVersion":2,"osmTimestamp":"2017-08-07T19:53:36Z","seamarkType":"light_minor","aidClass":"light","category":"navigation-aid","tags":{"seamark:light:character":"LFl","seamark:light:colour":"green","seamark:light:exhibition":"night","seamark:light:visibility":"part_obscured","seamark:type":"light_minor"}}},{"type":"Feature","id":"node/5019700463","geometry":{"type":"Point","coordinates":[55.14447,25.0822937]},"properties":{"osmId":"5019700463","osmType":"node","osmUrl":"https://www.openstreetmap.org/node/5019700463","osmVersion":2,"osmTimestamp":"2017-08-07T19:53:36Z","seamarkType":"light_minor","aidClass":"light","category":"navigation-aid","tags":{"seamark:light:character":"LFl","seamark:light:colour":"red","seamark:light:exhibition":"night","seamark:light:visibility":"part_obscured","seamark:type":"light_minor"}}},{"type":"Feature","id":"node/6522977788","geometry":{"type":"Point","coordinates":[55.341135,25.2048531]},"properties":{"osmId":"6522977788","osmType":"node","osmUrl":"https://www.openstreetmap.org/node/6522977788","osmVersion":1,"osmTimestamp":"2019-06-05T09:15:21Z","seamarkType":"light_major","aidClass":"light","category":"navigation-aid","tags":{"man_made":"lighthouse","seamark:type":"light_major"}}},{"type":"Feature","id":"node/12087620898","geometry":{"type":"Point","coordinates":[56.0458,25.9745]},"properties":{"osmId":"12087620898","osmType":"node","osmUrl":"https://www.openstreetmap.org/node/12087620898","osmVersion":1,"osmTimestamp":"2024-08-01T17:21:38Z","seamarkType":"light_major","aidClass":"light","category":"navigation-aid","tags":{"seamark:light:1:character":"Oc","seamark:light:1:colour":"red","seamark:light:1:group":"1","seamark:light:1:height":"16","seamark:light:1:period":"6","seamark:light:1:range":"6","seamark:light:1:sector_end":"147.35","seamark:light:1:sector_start":"144.35","seamark:light:2:character":"Oc","seamark:light:2:colour":"white","seamark:light:2:group":"1","seamark:light:2:height":"16","seamark:light:2:period":"6","seamark:light:2:range":"6","seamark:light:2:sector_end":"144.35","seamark:light:2:sector_start":"140.35","seamark:light:3:character":"Oc","seamark:light:3:colour":"green","seamark:light:3:group":"1","seamark:light:3:height":"16","seamark:light:3:period":"6","seamark:light:3:range":"6","seamark:light:3:sector_end":"140.35","seamark:light:3:sector_start":"137.35","seamark:type":"light_major"}}},{"type":"Feature","id":"node/12087620901","geometry":{"type":"Point","coordinates":[56.0904,26.0854833]},"properties":{"osmId":"12087620901","osmType":"node","osmUrl":"https://www.openstreetmap.org/node/12087620901","osmVersion":1,"osmTimestamp":"2024-08-01T17:21:38Z","seamarkType":"buoy_special_purpose","aidClass":"buoy","category":"buoy","tags":{"seamark:buoy_special_purpose:colour":"yellow","seamark:buoy_special_purpose:shape":"can","seamark:light:character":"Fl","seamark:light:colour":"yellow","seamark:light:group":"1","seamark:light:period":"6","seamark:type":"buoy_special_purpose"},"colour":"yellow"}},{"type":"Feature","id":"node/12087620902","geometry":{"type":"Point","coordinates":[56.0759833,26.08545]},"properties":{"osmId":"12087620902","osmType":"node","osmUrl":"https://www.openstreetmap.org/node/12087620902","osmVersion":1,"osmTimestamp":"2024-08-01T17:21:38Z","seamarkType":"buoy_special_purpose","aidClass":"buoy","category":"buoy","tags":{"seamark:buoy_special_purpose:colour":"yellow","seamark:buoy_special_purpose:shape":"can","seamark:light:character":"Fl","seamark:light:colour":"yellow","seamark:light:group":"1","seamark:light:period":"6","seamark:type":"buoy_special_purpose"},"colour":"yellow"}},{"type":"Feature","id":"node/12087620903","geometry":{"type":"Point","coordinates":[56.06135,26.0853833]},"properties":{"osmId":"12087620903","osmType":"node","osmUrl":"https://www.openstreetmap.org/node/12087620903","osmVersion":1,"osmTimestamp":"2024-08-01T17:21:38Z","seamarkType":"buoy_special_purpose","aidClass":"buoy","category":"buoy","tags":{"seamark:buoy_special_purpose:colour":"yellow","seamark:buoy_special_purpose:shape":"can","seamark:light:character":"Fl","seamark:light:colour":"yellow","seamark:light:group":"1","seamark:light:period":"6","seamark:type":"buoy_special_purpose"},"colour":"yellow"}},{"type":"Feature","id":"node/12087620904","geometry":{"type":"Point","coordinates":[56.0649333,26.0637]},"properties":{"osmId":"12087620904","osmType":"node","osmUrl":"https://www.openstreetmap.org/node/12087620904","osmVersion":1,"osmTimestamp":"2024-08-01T17:21:38Z","seamarkType":"buoy_special_purpose","aidClass":"buoy","category":"buoy","tags":{"seamark:buoy_special_purpose:colour":"yellow","seamark:buoy_special_purpose:shape":"can","seamark:light:character":"Fl","seamark:light:colour":"yellow","seamark:light:group":"1","seamark:light:period":"6","seamark:type":"buoy_special_purpose"},"colour":"yellow"}},{"type":"Feature","id":"node/12087620905","geometry":{"type":"Point","coordinates":[56.05965,26.0677167]},"properties":{"osmId":"12087620905","osmType":"node","osmUrl":"https://www.openstreetmap.org/node/12087620905","osmVersion":1,"osmTimestamp":"2024-08-01T17:21:38Z","seamarkType":"buoy_special_purpose","aidClass":"buoy","category":"buoy","tags":{"seamark:buoy_special_purpose:colour":"yellow","seamark:buoy_special_purpose:shape":"can","seamark:light:character":"Fl","seamark:light:colour":"yellow","seamark:light:group":"1","seamark:light:period":"6","seamark:type":"buoy_special_purpose"},"colour":"yellow"}},{"type":"Feature","id":"node/12087620906","geometry":{"type":"Point","coordinates":[56.05815,26.0739667]},"properties":{"osmId":"12087620906","osmType":"node","osmUrl":"https://www.openstreetmap.org/node/12087620906","osmVersion":1,"osmTimestamp":"2024-08-01T17:21:38Z","seamarkType":"buoy_lateral","aidClass":"buoy","category":"buoy","tags":{"seamark:buoy_lateral:category":"starboard","seamark:buoy_lateral:colour":"green","seamark:buoy_lateral:shape":"can","seamark:buoy_lateral:system":"iala-a","seamark:light:character":"Fl","seamark:light:colour":"green","seamark:light:group":"1","seamark:light:period":"4","seamark:type":"buoy_lateral"},"colour":"green"}},{"type":"Feature","id":"node/12087620907","geometry":{"type":"Point","coordinates":[56.05815,26.0785]},"properties":{"osmId":"12087620907","osmType":"node","osmUrl":"https://www.openstreetmap.org/node/12087620907","osmVersion":1,"osmTimestamp":"2024-08-01T17:21:38Z","seamarkType":"buoy_lateral","aidClass":"buoy","category":"buoy","tags":{"seamark:buoy_lateral:category":"port","seamark:buoy_lateral:colour":"red","seamark:buoy_lateral:shape":"can","seamark:buoy_lateral:system":"iala-a","seamark:light:character":"Fl","seamark:light:colour":"red","seamark:light:group":"1","seamark:light:period":"4","seamark:type":"buoy_lateral"},"colour":"red"}},{"type":"Feature","id":"node/12089274976","geometry":{"type":"Point","coordinates":[55.0793,25.50755]},"properties":{"osmId":"12089274976","osmType":"node","osmUrl":"https://www.openstreetmap.org/node/12089274976","osmVersion":1,"osmTimestamp":"2024-08-02T16:37:44Z","seamarkType":"buoy_cardinal","aidClass":"buoy","category":"buoy","tags":{"seamark:buoy_cardinal:category":"east","seamark:buoy_cardinal:colour":"black;yellow;black","seamark:buoy_cardinal:colour_pattern":"horizontal","seamark:buoy_cardinal:shape":"pillar","seamark:light:character":"Q","seamark:light:colour":"white","seamark:light:group":"3","seamark:light:period":"10","seamark:name":"Neptune Wreck","seamark:topmark:colour":"black","seamark:topmark:shape":"2 cones base together","seamark:type":"buoy_cardinal"},"name":"Neptune Wreck","colour":"black;yellow;black"}},{"type":"Feature","id":"node/12089274977","geometry":{"type":"Point","coordinates":[55.1038833,25.4557833]},"properties":{"osmId":"12089274977","osmType":"node","osmUrl":"https://www.openstreetmap.org/node/12089274977","osmVersion":1,"osmTimestamp":"2024-08-02T16:37:44Z","seamarkType":"buoy_isolated_danger","aidClass":"buoy","category":"buoy","tags":{"seamark:buoy_isolated_danger:colour":"black;red;black","seamark:buoy_isolated_danger:colour_pattern":"horizontal","seamark:buoy_isolated_danger:shape":"pillar","seamark:light:character":"Fl","seamark:light:colour":"white","seamark:light:group":"2","seamark:light:period":"10","seamark:topmark:colour":"black","seamark:topmark:shape":"2 spheres","seamark:type":"buoy_isolated_danger"},"colour":"black;red;black"}},{"type":"Feature","id":"node/12089274978","geometry":{"type":"Point","coordinates":[55.15925,25.5093333]},"properties":{"osmId":"12089274978","osmType":"node","osmUrl":"https://www.openstreetmap.org/node/12089274978","osmVersion":1,"osmTimestamp":"2024-08-02T16:37:44Z","seamarkType":"buoy_isolated_danger","aidClass":"buoy","category":"buoy","tags":{"seamark:buoy_isolated_danger:colour":"black;red;black","seamark:buoy_isolated_danger:colour_pattern":"horizontal","seamark:buoy_isolated_danger:shape":"pillar","seamark:light:character":"Fl","seamark:light:colour":"white","seamark:light:group":"2","seamark:light:period":"10","seamark:topmark:colour":"black","seamark:topmark:shape":"2 spheres","seamark:type":"buoy_isolated_danger"},"colour":"black;red;black"}},{"type":"Feature","id":"node/12089279810","geometry":{"type":"Point","coordinates":[55.4603333,25.5766167]},"properties":{"osmId":"12089279810","osmType":"node","osmUrl":"https://www.openstreetmap.org/node/12089279810","osmVersion":1,"osmTimestamp":"2024-08-02T16:37:44Z","seamarkType":"buoy_cardinal","aidClass":"buoy","category":"buoy","tags":{"seamark:buoy_cardinal:category":"west","seamark:buoy_cardinal:colour":"yellow;black;yellow","seamark:buoy_cardinal:colour_pattern":"horizontal","seamark:buoy_cardinal:shape":"pillar","seamark:light:character":"Q","seamark:light:colour":"white","seamark:light:group":"9","seamark:light:period":"15","seamark:name":"Dara Wreck","seamark:topmark:colour":"black","seamark:topmark:shape":"2 cones point together","seamark:type":"buoy_cardinal"},"name":"Dara Wreck","colour":"yellow;black;yellow"}},{"type":"Feature","id":"node/12089280065","geometry":{"type":"Point","coordinates":[55.4336667,25.5365167]},"properties":{"osmId":"12089280065","osmType":"node","osmUrl":"https://www.openstreetmap.org/node/12089280065","osmVersion":1,"osmTimestamp":"2024-08-02T16:37:44Z","seamarkType":"buoy_safe_water","aidClass":"buoy","category":"buoy","tags":{"seamark:buoy_safe_water:colour":"red;white","seamark:buoy_safe_water:colour_pattern":"vertical","seamark:buoy_safe_water:shape":"pillar","seamark:light:character":"Mo","seamark:light:colour":"white","seamark:light:group":"A","seamark:light:period":"15","seamark:name":"Hamriyah","seamark:topmark:colour":"red","seamark:topmark:shape":"sphere","seamark:type":"buoy_safe_water"},"name":"Hamriyah","colour":"red;white"}},{"type":"Feature","id":"node/12089280068","geometry":{"type":"Point","coordinates":[55.9405667,25.8305]},"properties":{"osmId":"12089280068","osmType":"node","osmUrl":"https://www.openstreetmap.org/node/12089280068","osmVersion":1,"osmTimestamp":"2024-08-02T16:37:44Z","seamarkType":"buoy_lateral","aidClass":"buoy","category":"buoy","tags":{"seamark:buoy_lateral:category":"port","seamark:buoy_lateral:colour":"red","seamark:buoy_lateral:shape":"pillar","seamark:buoy_lateral:system":"iala-a","seamark:light:character":"Fl","seamark:light:colour":"red","seamark:light:group":"1","seamark:light:period":"3","seamark:name":"No 2","seamark:topmark:colour":"red","seamark:topmark:shape":"cylinder","seamark:type":"buoy_lateral"},"name":"No 2","colour":"red"}},{"type":"Feature","id":"node/12089280069","geometry":{"type":"Point","coordinates":[55.9456833,25.8206667]},"properties":{"osmId":"12089280069","osmType":"node","osmUrl":"https://www.openstreetmap.org/node/12089280069","osmVersion":1,"osmTimestamp":"2024-08-02T16:37:44Z","seamarkType":"buoy_lateral","aidClass":"buoy","category":"buoy","tags":{"seamark:buoy_lateral:category":"port","seamark:buoy_lateral:colour":"red","seamark:buoy_lateral:shape":"pillar","seamark:buoy_lateral:system":"iala-a","seamark:light:character":"Fl","seamark:light:colour":"red","seamark:light:group":"1","seamark:light:period":"6","seamark:name":"No 6","seamark:topmark:colour":"red","seamark:topmark:shape":"cylinder","seamark:type":"buoy_lateral"},"name":"No 6","colour":"red"}},{"type":"Feature","id":"node/12089280070","geometry":{"type":"Point","coordinates":[55.9473,25.8174667]},"properties":{"osmId":"12089280070","osmType":"node","osmUrl":"https://www.openstreetmap.org/node/12089280070","osmVersion":1,"osmTimestamp":"2024-08-02T16:37:44Z","seamarkType":"buoy_lateral","aidClass":"buoy","category":"buoy","tags":{"seamark:buoy_lateral:category":"port","seamark:buoy_lateral:colour":"red","seamark:buoy_lateral:shape":"pillar","seamark:buoy_lateral:system":"iala-a","seamark:light:character":"Fl","seamark:light:colour":"red","seamark:light:group":"1","seamark:light:period":"3","seamark:name":"No 8","seamark:topmark:colour":"red","seamark:topmark:shape":"cylinder","seamark:type":"buoy_lateral"},"name":"No 8","colour":"red"}},{"type":"Feature","id":"node/12089280071","geometry":{"type":"Point","coordinates":[55.95075,25.7986667]},"properties":{"osmId":"12089280071","osmType":"node","osmUrl":"https://www.openstreetmap.org/node/12089280071","osmVersion":1,"osmTimestamp":"2024-08-02T16:37:44Z","seamarkType":"buoy_lateral","aidClass":"buoy","category":"buoy","tags":{"seamark:buoy_lateral:category":"starboard","seamark:buoy_lateral:colour":"green","seamark:buoy_lateral:shape":"pillar","seamark:buoy_lateral:system":"iala-a","seamark:light:character":"Q","seamark:light:colour":"green","seamark:light:group":"1","seamark:name":"No 15","seamark:type":"buoy_lateral"},"name":"No 15","colour":"green"}},{"type":"Feature","id":"node/12089280072","geometry":{"type":"Point","coordinates":[55.95255,25.8029667]},"properties":{"osmId":"12089280072","osmType":"node","osmUrl":"https://www.openstreetmap.org/node/12089280072","osmVersion":1,"osmTimestamp":"2024-08-02T16:37:44Z","seamarkType":"buoy_lateral","aidClass":"buoy","category":"buoy","tags":{"seamark:buoy_lateral:category":"starboard","seamark:buoy_lateral:colour":"green","seamark:buoy_lateral:shape":"pillar","seamark:buoy_lateral:system":"iala-a","seamark:light:character":"Q","seamark:light:colour":"green","seamark:light:group":"2","seamark:light:period":"3","seamark:name":"No 13","seamark:type":"buoy_lateral"},"name":"No 13","colour":"green"}},{"type":"Feature","id":"node/12089280073","geometry":{"type":"Point","coordinates":[55.9525333,25.8044333]},"properties":{"osmId":"12089280073","osmType":"node","osmUrl":"https://www.openstreetmap.org/node/12089280073","osmVersion":1,"osmTimestamp":"2024-08-02T16:37:44Z","seamarkType":"buoy_lateral","aidClass":"buoy","category":"buoy","tags":{"seamark:buoy_lateral:category":"starboard","seamark:buoy_lateral:colour":"green","seamark:buoy_lateral:shape":"pillar","seamark:buoy_lateral:system":"iala-a","seamark:light:character":"Q","seamark:light:colour":"green","seamark:light:group":"1","seamark:name":"No 11","seamark:type":"buoy_lateral"},"name":"No 11","colour":"green"}},{"type":"Feature","id":"node/12089280074","geometry":{"type":"Point","coordinates":[55.9463833,25.8171]},"properties":{"osmId":"12089280074","osmType":"node","osmUrl":"https://www.openstreetmap.org/node/12089280074","osmVersion":1,"osmTimestamp":"2024-08-02T16:37:44Z","seamarkType":"buoy_lateral","aidClass":"buoy","category":"buoy","tags":{"seamark:buoy_lateral:category":"starboard","seamark:buoy_lateral:colour":"green","seamark:buoy_lateral:shape":"pillar","seamark:buoy_lateral:system":"iala-a","seamark:light:character":"Fl","seamark:light:colour":"green","seamark:light:group":"1","seamark:light:period":"3","seamark:name":"No 7","seamark:type":"buoy_lateral"},"name":"No 7","colour":"green"}},{"type":"Feature","id":"node/12089280075","geometry":{"type":"Point","coordinates":[55.9448,25.82025]},"properties":{"osmId":"12089280075","osmType":"node","osmUrl":"https://www.openstreetmap.org/node/12089280075","osmVersion":1,"osmTimestamp":"2024-08-02T16:37:44Z","seamarkType":"buoy_lateral","aidClass":"buoy","category":"buoy","tags":{"seamark:buoy_lateral:category":"starboard","seamark:buoy_lateral:colour":"green","seamark:buoy_lateral:shape":"pillar","seamark:buoy_lateral:system":"iala-a","seamark:light:character":"Fl","seamark:light:colour":"green","seamark:light:group":"1","seamark:light:period":"3","seamark:name":"No 3","seamark:type":"buoy_lateral"},"name":"No 3","colour":"green"}},{"type":"Feature","id":"node/12089280076","geometry":{"type":"Point","coordinates":[55.9396833,25.8301167]},"properties":{"osmId":"12089280076","osmType":"node","osmUrl":"https://www.openstreetmap.org/node/12089280076","osmVersion":1,"osmTimestamp":"2024-08-02T16:37:44Z","seamarkType":"buoy_lateral","aidClass":"buoy","category":"buoy","tags":{"seamark:buoy_lateral:category":"starboard","seamark:buoy_lateral:colour":"green","seamark:buoy_lateral:shape":"pillar","seamark:buoy_lateral:system":"iala-a","seamark:light:character":"Fl","seamark:light:colour":"green","seamark:light:group":"1","seamark:light:period":"3","seamark:name":"No 1","seamark:type":"buoy_lateral"},"name":"No 1","colour":"green"}},{"type":"Feature","id":"node/12089280077","geometry":{"type":"Point","coordinates":[55.9342167,25.8416]},"properties":{"osmId":"12089280077","osmType":"node","osmUrl":"https://www.openstreetmap.org/node/12089280077","osmVersion":1,"osmTimestamp":"2024-08-02T16:37:44Z","seamarkType":"buoy_safe_water","aidClass":"buoy","category":"buoy","tags":{"seamark:buoy_safe_water:colour":"red;white","seamark:buoy_safe_water:colour_pattern":"vertical","seamark:buoy_safe_water:shape":"spherical","seamark:light:character":"LFl","seamark:light:colour":"white","seamark:light:group":"1","seamark:light:period":"10","seamark:name":"Fairway","seamark:type":"buoy_safe_water"},"name":"Fairway","colour":"red;white"}},{"type":"Feature","id":"node/12089280078","geometry":{"type":"Point","coordinates":[56.0472833,25.9670167]},"properties":{"osmId":"12089280078","osmType":"node","osmUrl":"https://www.openstreetmap.org/node/12089280078","osmVersion":1,"osmTimestamp":"2024-08-02T16:37:44Z","seamarkType":"beacon_special_purpose","aidClass":"beacon","category":"navigation-aid","tags":{"man_made":"beacon","seamark:beacon_special_purpose:category":"warning","seamark:beacon_special_purpose:colour":"white","seamark:light:character":"Fl","seamark:light:colour":"white","seamark:light:group":"1","seamark:light:height":"4","seamark:light:period":"3","seamark:light:range":"2","seamark:name":"RMC","seamark:type":"beacon_special_purpose"},"name":"RMC","colour":"white"}},{"type":"Feature","id":"node/12089280079","geometry":{"type":"Point","coordinates":[56.0549333,25.9587667]},"properties":{"osmId":"12089280079","osmType":"node","osmUrl":"https://www.openstreetmap.org/node/12089280079","osmVersion":1,"osmTimestamp":"2024-08-02T16:37:44Z","seamarkType":"buoy_lateral","aidClass":"buoy","category":"buoy","tags":{"seamark:buoy_lateral:category":"starboard","seamark:buoy_lateral:colour":"green","seamark:buoy_lateral:shape":"conical","seamark:buoy_lateral:system":"iala-a","seamark:light:character":"Fl","seamark:light:colour":"green","seamark:light:group":"1","seamark:light:period":"3","seamark:name":"RMC5","seamark:type":"buoy_lateral"},"name":"RMC5","colour":"green"}},{"type":"Feature","id":"node/12089280080","geometry":{"type":"Point","coordinates":[56.05225,25.9635167]},"properties":{"osmId":"12089280080","osmType":"node","osmUrl":"https://www.openstreetmap.org/node/12089280080","osmVersion":1,"osmTimestamp":"2024-08-02T16:37:44Z","seamarkType":"buoy_lateral","aidClass":"buoy","category":"buoy","tags":{"seamark:buoy_lateral:category":"port","seamark:buoy_lateral:colour":"red","seamark:buoy_lateral:shape":"can","seamark:buoy_lateral:system":"iala-a","seamark:light:character":"Fl","seamark:light:colour":"red","seamark:light:group":"1","seamark:light:period":"3","seamark:name":"RMC2","seamark:type":"buoy_lateral"},"name":"RMC2","colour":"red"}},{"type":"Feature","id":"node/12089280081","geometry":{"type":"Point","coordinates":[56.0511667,25.9629833]},"properties":{"osmId":"12089280081","osmType":"node","osmUrl":"https://www.openstreetmap.org/node/12089280081","osmVersion":1,"osmTimestamp":"2024-08-02T16:37:44Z","seamarkType":"buoy_lateral","aidClass":"buoy","category":"buoy","tags":{"seamark:buoy_lateral:category":"starboard","seamark:buoy_lateral:colour":"green","seamark:buoy_lateral:shape":"conical","seamark:buoy_lateral:system":"iala-a","seamark:light:character":"Fl","seamark:light:colour":"green","seamark:light:group":"1","seamark:light:period":"3","seamark:name":"RMC3","seamark:type":"buoy_lateral"},"name":"RMC3","colour":"green"}},{"type":"Feature","id":"node/12089280082","geometry":{"type":"Point","coordinates":[56.0471667,25.9676667]},"properties":{"osmId":"12089280082","osmType":"node","osmUrl":"https://www.openstreetmap.org/node/12089280082","osmVersion":1,"osmTimestamp":"2024-08-02T16:37:44Z","seamarkType":"buoy_lateral","aidClass":"buoy","category":"buoy","tags":{"seamark:buoy_lateral:category":"starboard","seamark:buoy_lateral:colour":"green","seamark:buoy_lateral:shape":"conical","seamark:buoy_lateral:system":"iala-a","seamark:light:character":"Fl","seamark:light:colour":"green","seamark:light:group":"1","seamark:light:period":"3","seamark:name":"RMC1","seamark:type":"buoy_lateral"},"name":"RMC1","colour":"green"}},{"type":"Feature","id":"node/12089280083","geometry":{"type":"Point","coordinates":[56.0456333,25.9686333]},"properties":{"osmId":"12089280083","osmType":"node","osmUrl":"https://www.openstreetmap.org/node/12089280083","osmVersion":1,"osmTimestamp":"2024-08-02T16:37:44Z","seamarkType":"buoy_lateral","aidClass":"buoy","category":"buoy","tags":{"seamark:buoy_lateral:category":"starboard","seamark:buoy_lateral:colour":"green","seamark:buoy_lateral:shape":"spar","seamark:buoy_lateral:system":"iala-a","seamark:light:character":"Iso","seamark:light:colour":"green","seamark:light:group":"1","seamark:light:period":"3","seamark:type":"buoy_lateral"},"colour":"green"}},{"type":"Feature","id":"node/12089280084","geometry":{"type":"Point","coordinates":[56.0451167,25.9822333]},"properties":{"osmId":"12089280084","osmType":"node","osmUrl":"https://www.openstreetmap.org/node/12089280084","osmVersion":1,"osmTimestamp":"2024-08-02T16:37:44Z","seamarkType":"buoy_lateral","aidClass":"buoy","category":"buoy","tags":{"seamark:buoy_lateral:category":"port","seamark:buoy_lateral:colour":"red","seamark:buoy_lateral:shape":"pillar","seamark:buoy_lateral:system":"iala-a","seamark:light:character":"Fl","seamark:light:colour":"red","seamark:light:group":"2","seamark:light:period":"6","seamark:name":"C4","seamark:topmark:colour":"red","seamark:topmark:shape":"cylinder","seamark:type":"buoy_lateral"},"name":"C4","colour":"red"}},{"type":"Feature","id":"node/12089280085","geometry":{"type":"Point","coordinates":[56.0407,25.9821667]},"properties":{"osmId":"12089280085","osmType":"node","osmUrl":"https://www.openstreetmap.org/node/12089280085","osmVersion":1,"osmTimestamp":"2024-08-02T16:37:44Z","seamarkType":"buoy_lateral","aidClass":"buoy","category":"buoy","tags":{"seamark:buoy_lateral:category":"port","seamark:buoy_lateral:colour":"red","seamark:buoy_lateral:shape":"pillar","seamark:buoy_lateral:system":"iala-a","seamark:light:character":"Q","seamark:light:colour":"red","seamark:light:group":"1","seamark:name":"C2","seamark:topmark:colour":"red","seamark:topmark:shape":"cylinder","seamark:type":"buoy_lateral"},"name":"C2","colour":"red"}},{"type":"Feature","id":"node/12089280086","geometry":{"type":"Point","coordinates":[56.0398167,25.9788833]},"properties":{"osmId":"12089280086","osmType":"node","osmUrl":"https://www.openstreetmap.org/node/12089280086","osmVersion":1,"osmTimestamp":"2024-08-02T16:37:44Z","seamarkType":"buoy_lateral","aidClass":"buoy","category":"buoy","tags":{"seamark:buoy_lateral:category":"starboard","seamark:buoy_lateral:colour":"green","seamark:buoy_lateral:shape":"pillar","seamark:buoy_lateral:system":"iala-a","seamark:light:character":"Q","seamark:light:colour":"green","seamark:light:group":"1","seamark:name":"C4","seamark:type":"buoy_lateral"},"name":"C4","colour":"green"}},{"type":"Feature","id":"node/12089280087","geometry":{"type":"Point","coordinates":[56.0414833,25.9756]},"properties":{"osmId":"12089280087","osmType":"node","osmUrl":"https://www.openstreetmap.org/node/12089280087","osmVersion":1,"osmTimestamp":"2024-08-02T16:37:44Z","seamarkType":"buoy_lateral","aidClass":"buoy","category":"buoy","tags":{"seamark:buoy_lateral:category":"starboard","seamark:buoy_lateral:colour":"green","seamark:buoy_lateral:shape":"pillar","seamark:buoy_lateral:system":"iala-a","seamark:light:character":"Fl","seamark:light:colour":"green","seamark:light:group":"2","seamark:light:period":"6","seamark:name":"C3","seamark:type":"buoy_lateral"},"name":"C3","colour":"green"}}]}
